ZipsServed,SCF,Address,City,State,ZIP,tel,Fac,Sac,Den,Dal,Atl
5,MID ISLAND,160 DURYEA RD,MELVILLE,NY,11747-3832,(631) 755-2524,,8,7,6,5
6,SAN JUAN,585 AVE FD ROOSEVELT STE 370,SAN JUAN,PR,00936-9312,(787) 622-1659,,8,8,8,7
7,SAN JUAN,585 AVE FD ROOSEVELT STE 370,SAN JUAN,PR,00936-9312,(787) 622-1659,,8,8,8,7
8,SAN JUAN,585 AVE FD ROOSEVELT STE 370,SAN JUAN,PR,00936-9312,(787) 622-1659,,8,8,8,7
9,SAN JUAN,585 AVE FD ROOSEVELT STE 370,SAN JUAN,PR,00936-9312,(787) 622-1659,,8,8,8,7
10,SPRINGFIELD P & D CTR,190 FIBERLOID ST,SPRINGFIELD,MA,01152-9900,(413) 785-6369,,8,7,7,5
11,SPRINGFIELD P & D CTR,190 FIBERLOID ST,SPRINGFIELD,MA,01152-9900,(413) 785-6369,,8,7,7,5
12,SPRINGFIELD P & D CTR,190 FIBERLOID ST,SPRINGFIELD,MA,01152-9900,(413) 785-6369,,8,7,7,5
13,SPRINGFIELD P & D CTR,190 FIBERLOID ST,SPRINGFIELD,MA,01152-9900,(413) 785-6369,,8,7,7,5
14,CENTRAL MA,192 MAIN ST,SHREWSBURY,MA,01546-0001,(508) 793-5915,,8,7,7,5
15,CENTRAL MA,192 MAIN ST,SHREWSBURY,MA,01546-0001,(508) 793-5915,,8,7,7,5
16,CENTRAL MA,192 MAIN ST,SHREWSBURY,MA,01546-0001,(508) 793-5915,,8,7,7,5
17,CENTRAL MA,192 MAIN ST,SHREWSBURY,MA,01546-0001,(508) 793-5915,,8,7,7,5
18,MIDDLESEX ESSEX,76 MAIN ST,NORTH READING,MA,01889-7001,(978) 664-7077,,8,7,7,5
19,MIDDLESEX ESSEX,76 MAIN ST,NORTH READING,MA,01889-7001,(978) 664-7077,,8,7,7,5
20,BROCKTON,225 LIBERTY ST,BROCKTON,MA,02301-5571,(508) 427-0159,,8,7,7,5
21,BOSTON,25 DORCHESTER AVE,BOSTON,MA,02205-0002,,,8,7,7,5
22,BOSTON,25 DORCHESTER AVE,BOSTON,MA,02205-0002,,,8,7,7,5
23,BROCKTON,225 LIBERTY ST,BROCKTON,MA,02301-5571,(508) 427-0159,,8,7,7,5
24,NORTHWEST BOSTON,200 SMITH ST,WALTHAM,MA,02451-0099,,,8,7,7,5
25,CAPE COD,25 TOBEY RD,WAREHAM,MA,02571-9701,(401) 752-5649,,8,7,7,5
26,CAPE COD,25 TOBEY RD,WAREHAM,MA,02571-9701,(401) 752-5649,,8,7,7,5
27,PROVIDENCE,24 CORLISS ST RM 100,PROVIDENCE,RI,02904-2477,(401) 752-5649,,8,7,7,5
28,PROVIDENCE,24 CORLISS ST RM 100,PROVIDENCE,RI,02904-2477,(401) 752-5649,,8,7,7,5
29,PROVIDENCE,24 CORLISS ST RM 100,PROVIDENCE,RI,02904-2477,(401) 752-5649,,8,7,7,5
30,MANCHESTER,955 GOFFS FALLS RD STE 997,MANCHESTER,NH,03103-9997,(603) 644-4084,,8,7,7,5
31,MANCHESTER,955 GOFFS FALLS RD STE 997,MANCHESTER,NH,03103-9997,(603) 644-4084,,8,7,7,5
32,MANCHESTER,955 GOFFS FALLS RD STE 997,MANCHESTER,NH,03103-9997,(603) 644-4084,,8,7,7,5
33,MANCHESTER,955 GOFFS FALLS RD STE 997,MANCHESTER,NH,03103-9997,(603) 644-4084,,8,7,7,5
34,MANCHESTER,955 GOFFS FALLS RD STE 997,MANCHESTER,NH,03103-9997,(603) 644-4084,,8,7,7,5
35,WHITE RIVER JUNCTION,195 SYKES MOUNTAIN AVE,WHITE RIVER JUNCTION,VT,05001-9997,(802) 296-3237,,8,7,7,5
36,WHITE RIVER JUNCTION,195 SYKES MOUNTAIN AVE,WHITE RIVER JUNCTION,VT,05001-9997,(802) 296-3237,,8,7,7,5
37,WHITE RIVER JUNCTION,195 SYKES MOUNTAIN AVE,WHITE RIVER JUNCTION,VT,05001-9997,(802) 296-3237,,8,7,7,5
38,PORTSMOUTH,345 HERITAGE AVE UNIT 100,PORTSMOUTH,NH,03801-9995,(603) 644-4128,,8,7,7,5
39,PORTSMOUTH,345 HERITAGE AVE UNIT 100,PORTSMOUTH,NH,03801-9995,(603) 644-4128,,8,7,7,5
40,SOUTHERN  MAINE,79 POSTAL SERVICE WAY,SCARBOROUGH,ME,04074-7001,(207) 510-2793,,8,7,7,5
41,SOUTHERN  MAINE,79 POSTAL SERVICE WAY,SCARBOROUGH,ME,04074-7001,(207) 510-2793,,8,7,7,5
42,SOUTHERN  MAINE,79 POSTAL SERVICE WAY,SCARBOROUGH,ME,04074-7001,(207) 510-2793,,8,7,7,5
43,SOUTHERN  MAINE,79 POSTAL SERVICE WAY,SCARBOROUGH,ME,04074-7001,(207) 510-2793,,8,7,7,5
44,BANGOR,16 PENOBSCOT MEADOW DR,HAMPDEN,ME,04444-7099,(207) 941-2012,,8,8,7,6
45,SOUTHERN  MAINE,79 POSTAL SERVICE WAY,SCARBOROUGH,ME,04074-7001,(207) 510-2793,,8,7,7,5
46,BANGOR,16 PENOBSCOT MEADOW DR,HAMPDEN,ME,04444-7099,(207) 941-2012,,8,8,7,6
47,BANGOR,16 PENOBSCOT MEADOW DR,HAMPDEN,ME,04444-7099,(207) 941-2012,,8,8,7,6
48,SOUTHERN  MAINE,79 POSTAL SERVICE WAY,SCARBOROUGH,ME,04074-7001,(207) 510-2793,,8,7,7,5
49,BANGOR,16 PENOBSCOT MEADOW DR,HAMPDEN,ME,04444-7099,(207) 941-2012,,8,8,7,6
50,WHITE RIVER JUNCTION,195 SYKES MOUNTAIN AVE,WHITE RIVER JUNCTION,VT,05001-9997,(802) 296-3237,,8,7,7,5
51,WHITE RIVER JUNCTION,195 SYKES MOUNTAIN AVE,WHITE RIVER JUNCTION,VT,05001-9997,(802) 296-3237,,8,7,7,5
52,WHITE RIVER JUNCTION,195 SYKES MOUNTAIN AVE,WHITE RIVER JUNCTION,VT,05001-9997,(802) 296-3237,,8,7,7,5
53,WHITE RIVER JUNCTION,195 SYKES MOUNTAIN AVE,WHITE RIVER JUNCTION,VT,05001-9997,(802) 296-3237,,8,7,7,5
54,BURLINGTON,8 NEW ENGLAND DR,ESSEX JUNCTION,VT,05452-9997,(802) 872-2222,,8,7,7,5
55,MIDDLESEX ESSEX,76 MAIN ST,NORTH READING,MA,01889-7001,(978) 664-7077,,8,7,7,5
56,BURLINGTON,8 NEW ENGLAND DR,ESSEX JUNCTION,VT,05452-9997,(802) 872-2222,,8,7,7,5
57,WHITE RIVER JUNCTION,195 SYKES MOUNTAIN AVE,WHITE RIVER JUNCTION,VT,05001-9997,(802) 296-3237,,8,7,7,5
58,WHITE RIVER JUNCTION,195 SYKES MOUNTAIN AVE,WHITE RIVER JUNCTION,VT,05001-9997,(802) 296-3237,,8,7,7,5
59,WHITE RIVER JUNCTION,195 SYKES MOUNTAIN AVE,WHITE RIVER JUNCTION,VT,05001-9997,(802) 296-3237,,8,7,7,5
60,HARTFORD,141 WESTON ST,HARTFORD,CT,06101-9998,(860) 524-6075,,8,7,7,5
61,HARTFORD,141 WESTON ST,HARTFORD,CT,06101-9998,(860) 524-6075,,8,7,7,5
62,HARTFORD,141 WESTON ST,HARTFORD,CT,06101-9998,(860) 524-6075,,8,7,7,5
63,SOUTHERN CT,24 RESEARCH PKWY,WALLINGFORD,CT,06492-9051,(203) 949-3040,,8,7,7,5
64,SOUTHERN CT,24 RESEARCH PKWY,WALLINGFORD,CT,06492-9051,(203) 949-3040,,8,7,7,5
65,SOUTHERN CT,24 RESEARCH PKWY,WALLINGFORD,CT,06492-9051,(203) 949-3040,,8,7,7,5
66,SOUTHERN CT,24 RESEARCH PKWY,WALLINGFORD,CT,06492-9051,(203) 949-3040,,8,7,7,5
67,WATERBURY,135 GRAND ST,WATERBURY,CT,06701-9998,,,8,7,7,5
68,STAMFORD,427 WEST AVE,STAMFORD,CT,06910-1002,(203) 326-2038,,8,7,6,5
69,STAMFORD,427 WEST AVE,STAMFORD,CT,06910-1002,(203) 326-2038,,8,7,6,5
70,DOMINICK V DANIELS,850 NEWARK TPKE,KEARNY,NJ,07099-9400,(201) 955-9600,,8,7,6,5
71,DOMINICK V DANIELS,850 NEWARK TPKE,KEARNY,NJ,07099-9400,(201) 955-9600,,8,7,6,5
72,DOMINICK V DANIELS,850 NEWARK TPKE,KEARNY,NJ,07099-9400,(201) 955-9600,,8,7,6,5
73,DOMINICK V DANIELS,850 NEWARK TPKE,KEARNY,NJ,07099-9400,(201) 955-9600,,8,7,6,5
74,NORTHERN NJ METRO,200 INDUSTRIAL AVE,TETERBORO,NJ,07699-9998,,,8,7,6,5
75,NORTHERN NJ METRO,200 INDUSTRIAL AVE,TETERBORO,NJ,07699-9998,,,8,7,6,5
76,NORTHERN NJ METRO,200 INDUSTRIAL AVE,TETERBORO,NJ,07699-9998,,,8,7,6,5
77,MONMOUTH,307 INDUSTRIAL WAY W,EATONTOWN,NJ,07799-9314,(732) 819-3630,,8,7,6,5
78,WEST JERSEY,54 S JEFFERSON RD,WHIPPANY,NJ,07999-9998,,,8,7,6,5
79,WEST JERSEY,54 S JEFFERSON RD,WHIPPANY,NJ,07999-9998,,,8,7,6,5
80,SOUTH JERSEY P & DC,421 BENIGNO BLVD,BELLMAWR,NJ,08031-2520,(856) 933-4047,,8,7,6,5
81,SOUTH JERSEY P & DC,421 BENIGNO BLVD,BELLMAWR,NJ,08031-2520,(856) 933-4047,,8,7,6,5
82,SOUTH JERSEY P & DC,421 BENIGNO BLVD,BELLMAWR,NJ,08031-2520,(856) 933-4047,,8,7,6,5
83,SOUTH JERSEY P & DC,421 BENIGNO BLVD,BELLMAWR,NJ,08031-2520,(856) 933-4047,,8,7,6,5
84,SOUTH JERSEY P & DC,421 BENIGNO BLVD,BELLMAWR,NJ,08031-2520,(856) 933-4047,,8,7,6,5
85,TRENTON,680 US HIGHWAY 130,TRENTON,NJ,08650-9998,(609) 581-3139,,8,7,6,5
86,TRENTON,680 US HIGHWAY 130,TRENTON,NJ,08650-9998,(609) 581-3139,,8,7,6,5
87,TRENTON,680 US HIGHWAY 130,TRENTON,NJ,08650-9998,(609) 581-3139,,8,7,6,5
88,KILMER,21 KILMER RD,EDISON,NJ,08899-9997,(732) 819-3630,,8,7,6,5
89,KILMER,21 KILMER RD,EDISON,NJ,08899-9997,(732) 819-3630,,8,7,6,5
90,KILMER,21 KILMER RD,EDISON,NJ,08899-9997,(732) 819-3630,,8,7,6,5
91,KILMER,21 KILMER RD,EDISON,NJ,08899-9997,(732) 819-3630,,8,7,6,5
92,KILMER,21 KILMER RD,EDISON,NJ,08899-9997,(732) 819-3630,,8,7,6,5
94,KILMER,21 KILMER RD,EDISON,NJ,08899-9997,(732) 819-3630,,8,7,6,5
95,KILMER,21 KILMER RD,EDISON,NJ,08899-9997,(732) 819-3630,,8,7,6,5
96,KILMER,21 KILMER RD,EDISON,NJ,08899-9997,(732) 819-3630,,8,7,6,5
97,KILMER,21 KILMER RD,EDISON,NJ,08899-9997,(732) 819-3630,,8,7,6,5
98,KILMER,21 KILMER RD,EDISON,NJ,08899-9997,(732) 819-3630,,8,7,6,5
100,NEW YORK,341 9TH AVE RM 1042,NEW YORK,NY,10199-9704,(212) 330-2770,,8,7,6,5
101,NEW YORK,341 9TH AVE RM 1042,NEW YORK,NY,10199-9704,(212) 330-2770,,8,7,6,5
102,NEW YORK,341 9TH AVE RM 1042,NEW YORK,NY,10199-9704,(212) 330-2770,,8,7,6,5
103,STATEN ISLAND,550 MANOR RD,STATEN ISLAND,NY,10314-2967,(718) 321-5070,,8,7,6,5
104,BRONX,558 GRAND CONCOURSE,BRONX,NY,10451-9998,(718) 402-3184,,8,7,6,5
105,WESTCHESTER,1000 WESTCHESTER AVE,WHITE PLAINS,NY,10610-1000,(914) 697-4123,,8,7,6,5
106,WESTCHESTER,1000 WESTCHESTER AVE,WHITE PLAINS,NY,10610-1000,(914) 697-4123,,8,7,6,5
107,WESTCHESTER,1000 WESTCHESTER AVE,WHITE PLAINS,NY,10610-1000,(914) 697-4123,,8,7,6,5
108,WESTCHESTER,1000 WESTCHESTER AVE,WHITE PLAINS,NY,10610-1000,(914) 697-4123,,8,7,6,5
109,WESTCHESTER,1000 WESTCHESTER AVE,WHITE PLAINS,NY,10610-1000,(914) 697-4123,,8,7,6,5
110,QUEENS,14202 20TH AVE,FLUSHING,NY,11351-3000,(718) 321-5071,,8,7,6,5
111,QUEENS,14202 20TH AVE,FLUSHING,NY,11351-3000,(718) 321-5071,,8,7,6,5
112,BROOKLYN,1050 FORBELL ST,BROOKLYN,NY,11256-9700,(718) 321-5071,,8,7,6,5
113,QUEENS,14202 20TH AVE,FLUSHING,NY,11351-3000,(718) 321-5071,,8,7,6,5
114,QUEENS,14202 20TH AVE,FLUSHING,NY,11351-3000,(718) 321-5071,,8,7,6,5
115,WESTERN NASSAU,830 STEWART AVE,GARDEN CITY,NY,11599-9998,(631) 755-2524,,8,7,6,5
116,BROOKLYN,1050 FORBELL ST,BROOKLYN,NY,11256-9700,(718) 321-5071,,8,7,6,5
117,MID ISLAND,160 DURYEA RD,MELVILLE,NY,11747-3832,(631) 755-2524,,8,7,6,5
118,MID ISLAND,160 DURYEA RD,MELVILLE,NY,11747-3832,(631) 755-2524,,8,7,6,5
119,MID ISLAND,160 DURYEA RD,MELVILLE,NY,11747-3832,(631) 755-2524,,8,7,6,5
120,ALBANY,30 OLD KARNER RD,ALBANY,NY,12288-9997,(518) 452-2303,,8,7,7,5
121,ALBANY,30 OLD KARNER RD,ALBANY,NY,12288-9997,(518) 452-2303,,8,7,7,5
122,ALBANY,30 OLD KARNER RD,ALBANY,NY,12288-9997,(518) 452-2303,,8,7,7,5
123,ALBANY,30 OLD KARNER RD,ALBANY,NY,12288-9997,(518) 452-2303,,8,7,7,5
124,MID HUDSON,99 ENTERPRISE DR,NEWBURGH,NY,12555-8301,(914) 697-4123,,8,7,6,5
125,MID HUDSON,99 ENTERPRISE DR,NEWBURGH,NY,12555-8301,(914) 697-4123,,8,7,6,5
126,MID HUDSON,99 ENTERPRISE DR,NEWBURGH,NY,12555-8301,(914) 697-4123,,8,7,6,5
127,MID HUDSON,99 ENTERPRISE DR,NEWBURGH,NY,12555-8301,(914) 697-4123,,8,7,6,5
128,GLENS FALLS,16 HUDSON AVE,GLENS FALLS,NY,12801-9998,(518) 745-4525,,8,7,7,5
129,PLATTSBURGH,46 VETERANS LN,PLATTSBURGH,NY,12901-1257,(518) 563-1450,,8,7,7,5
130,SYRACUSE,5640 E TAFT RD,SYRACUSE,NY,13220-9998,(315) 452-3455,,8,7,6,5
131,SYRACUSE,5640 E TAFT RD,SYRACUSE,NY,13220-9998,(315) 452-3455,,8,7,6,5
132,SYRACUSE,5640 E TAFT RD,SYRACUSE,NY,13220-9998,(315) 452-3455,,8,7,6,5
133,UTICA,100 PITCHER ST,UTICA,NY,13504-9998,(315) 738-5321,,8,7,6,5
134,UTICA,100 PITCHER ST,UTICA,NY,13504-9998,(315) 738-5321,,8,7,6,5
135,UTICA,100 PITCHER ST,UTICA,NY,13504-9998,(315) 738-5321,,8,7,6,5
136,WATERTOWN,232 COMMERCE PARK DR,WATERTOWN,NY,13601-9998,,,8,7,6,5
137,BINGHAMTON,115 HENRY ST,BINGHAMTON,NY,13902-9998,(607) 773-2333,,8,7,6,5
138,BINGHAMTON,115 HENRY ST,BINGHAMTON,NY,13902-9998,(607) 773-2333,,8,7,6,5
139,BINGHAMTON,115 HENRY ST,BINGHAMTON,NY,13902-9998,(607) 773-2333,,8,7,6,5
140,BUFFALO,1200 WILLIAM ST,BUFFALO,NY,14240-9702,(716) 846-2415,,8,6,6,5
141,BUFFALO,1200 WILLIAM ST,BUFFALO,NY,14240-9702,(716) 846-2415,,8,6,6,5
142,BUFFALO,1200 WILLIAM ST,BUFFALO,NY,14240-9702,(716) 846-2415,,8,6,6,5
143,BUFFALO,1200 WILLIAM ST,BUFFALO,NY,14240-9702,(716) 846-2415,,8,6,6,5
144,ROCHESTER,1335 JEFFERSON RD,ROCHESTER,NY,14692-9998,(585) 272-5616,,8,6,6,5
145,ROCHESTER,1335 JEFFERSON RD,ROCHESTER,NY,14692-9998,(585) 272-5616,,8,6,6,5
146,ROCHESTER,1335 JEFFERSON RD,ROCHESTER,NY,14692-9998,(585) 272-5616,,8,6,6,5
147,JAMESTOWN,300 E 3RD ST,JAMESTOWN,NY,14701-9998,(716) 846-2415,,8,6,6,5
148,ELMIRA,1580 SULLIVAN ST,ELMIRA,NY,14901-9998,(607) 737-5116,,8,6,6,5
149,ELMIRA,1580 SULLIVAN ST,ELMIRA,NY,14901-9998,(607) 737-5116,,8,6,6,5
150,PITTSBURGH PDC,1001 CALIFORNIA AVE,PITTSBURGH,PA,15290-1001,(412) 359-7845,,8,6,6,4
151,PITTSBURGH PDC,1001 CALIFORNIA AVE,PITTSBURGH,PA,15290-1001,(412) 359-7845,,8,6,6,4
152,PITTSBURGH PDC,1001 CALIFORNIA AVE,PITTSBURGH,PA,15290-1001,(412) 359-7845,,8,6,6,4
153,PITTSBURGH PDC,1001 CALIFORNIA AVE,PITTSBURGH,PA,15290-1001,(412) 359-7845,,8,6,6,4
154,PITTSBURGH PDC,1001 CALIFORNIA AVE,PITTSBURGH,PA,15290-1001,(412) 359-7845,,8,6,6,4
155,JOHNSTOWN,235 JARI DR,JOHNSTOWN,PA,15904-6940,(814) 533-4937,,8,6,6,4
156,GREENSBURG MPC,201 AVENUE B,YOUNGWOOD,PA,15697-1711,(724) 837-4187,,8,6,6,4
157,JOHNSTOWN,235 JARI DR,JOHNSTOWN,PA,15904-6940,(814) 533-4937,,8,6,6,4
158,JOHNSTOWN,235 JARI DR,JOHNSTOWN,PA,15904-6940,(814) 533-4937,,8,6,6,4
159,JOHNSTOWN,235 JARI DR,JOHNSTOWN,PA,15904-6940,(814) 533-4937,,8,6,6,4
160,NEW CASTLE,435 S CASCADE ST,NEW CASTLE,PA,16108-9998,(724) 656-7212,,8,6,6,4
161,NEW CASTLE,435 S CASCADE ST,NEW CASTLE,PA,16108-9998,(724) 656-7212,,8,6,6,4
162,NEW CASTLE,435 S CASCADE ST,NEW CASTLE,PA,16108-9998,(724) 656-7212,,8,6,6,4
163,ERIE,2108 E 38TH ST,ERIE,PA,16515-9998,(814) 898-7340,,8,6,6,4
164,ERIE,2108 E 38TH ST,ERIE,PA,16515-9998,(814) 898-7340,,8,6,6,4
165,ERIE,2108 E 38TH ST,ERIE,PA,16515-9998,(814) 898-7340,,8,6,6,4
166,ALTOONA,140 PATCHWAY RD,DUNCANSVILLE,PA,16635-9997,(814) 693-4742,,8,6,6,4
167,ERIE,2108 E 38TH ST,ERIE,PA,16515-9998,(814) 898-7340,,8,6,6,4
168,ALTOONA,140 PATCHWAY RD,DUNCANSVILLE,PA,16635-9997,(814) 693-4742,,8,6,6,4
169,WILLIAMSPORT,2901 REACH RD,WILLIAMSPORT,PA,17701-9997,(570) 320-4162,,8,7,6,4
170,HARRISBURG,1425 CROOKED HILL RD,HARRISBURG,PA,17107-9997,(717) 257-4875,,8,7,6,4
171,HARRISBURG,1425 CROOKED HILL RD,HARRISBURG,PA,17107-9997,(717) 257-4875,,8,7,6,4
172,HARRISBURG,1425 CROOKED HILL RD,HARRISBURG,PA,17107-9997,(717) 257-4875,,8,7,6,4
173,LANCASTER,1400 HARRISBURG PIKE,LANCASTER,PA,17604-9992,(717) 396-6932,,8,7,6,4
174,LANCASTER,1400 HARRISBURG PIKE,LANCASTER,PA,17604-9992,(717) 396-6932,,8,7,6,4
175,LANCASTER,1400 HARRISBURG PIKE,LANCASTER,PA,17604-9992,(717) 396-6932,,8,7,6,4
176,LANCASTER,1400 HARRISBURG PIKE,LANCASTER,PA,17604-9992,(717) 396-6932,,8,7,6,4
177,WILLIAMSPORT,2901 REACH RD,WILLIAMSPORT,PA,17701-9997,(570) 320-4162,,8,7,6,4
178,HARRISBURG,1425 CROOKED HILL RD,HARRISBURG,PA,17107-9997,(717) 257-4875,,8,7,6,4
179,READING,2100 N 13TH ST,READING,PA,19612-9992,(610) 921-7055,,8,7,6,4
180,LEHIGH VALLEY,2299 HIGHLAND AVE,LEHIGH VALLEY,PA,18002-,(610) 882-3244,,8,7,6,5
181,LEHIGH VALLEY,2299 HIGHLAND AVE,LEHIGH VALLEY,PA,18002-,(610) 882-3244,,8,7,6,5
182,WILKES BARRE,300 S MAIN ST,WILKES BARRE,PA,18701-9997,,,8,7,6,5
183,LEHIGH VALLEY,2299 HIGHLAND AVE,LEHIGH VALLEY,PA,18002-,(610) 882-3244,,8,7,6,5
184,SCRANTON,2800 STAFFORD AVE,SCRANTON,PA,18505-9997,(570) 969-5140,,8,7,6,5
185,SCRANTON,2800 STAFFORD AVE,SCRANTON,PA,18505-9997,(570) 969-5140,,8,7,6,5
186,WILKES BARRE,300 S MAIN ST,WILKES BARRE,PA,18701-9997,,,8,7,6,5
187,WILKES BARRE,300 S MAIN ST,WILKES BARRE,PA,18701-9997,,,8,7,6,5
188,SCRANTON,2800 STAFFORD AVE,SCRANTON,PA,18505-9997,(570) 969-5140,,8,7,6,5
189,SOUTHEASTERN P&DC,1000 W VALLEY RD,SOUTHEASTERN,PA,19399-9992,(610) 964-6401,,8,7,6,5
190,PHILA P&DC,7500 LINDBERGH BLVD,PHILADELPHIA,PA,19176-9997,(215) 895-8970,,8,7,6,5
191,PHILA P&DC,7500 LINDBERGH BLVD,PHILADELPHIA,PA,19176-9997,(215) 895-8970,,8,7,6,5
192,PHILA P&DC,7500 LINDBERGH BLVD,PHILADELPHIA,PA,19176-9997,(215) 895-8970,,8,7,6,5
193,SOUTHEASTERN P&DC,1000 W VALLEY RD,SOUTHEASTERN,PA,19399-9992,(610) 964-6401,,8,7,6,5
194,SOUTHEASTERN P&DC,1000 W VALLEY RD,SOUTHEASTERN,PA,19399-9992,(610) 964-6401,,8,7,6,5
195,READING,2100 N 13TH ST,READING,PA,19612-9992,(610) 921-7055,,8,7,6,4
196,READING,2100 N 13TH ST,READING,PA,19612-9992,(610) 921-7055,,8,7,6,4
197,WILMINGTON P & DC,147 QUIGLEY BLVD,NEW CASTLE,DE,19720-4183,(302) 323-3734,,8,7,6,5
198,WILMINGTON P & DC,147 QUIGLEY BLVD,NEW CASTLE,DE,19720-4183,(302) 323-3734,,8,7,6,5
199,WILMINGTON P & DC,147 QUIGLEY BLVD,NEW CASTLE,DE,19720-4183,(302) 323-3734,,8,7,6,5
200,WASHINGTON,900 BRENTWOOD RD NE,WASHINGTON,DC,20018-1004,(202) 636-1972,,8,7,6,4
201,DULLES,44715 PRENTICE DR,DULLES,VA,20101-9998,(703) 406-6314,,8,7,6,4
202,WASHINGTON,900 BRENTWOOD RD NE,WASHINGTON,DC,20018-1004,(202) 636-1972,,8,7,6,4
203,WASHINGTON,900 BRENTWOOD RD NE,WASHINGTON,DC,20018-1004,(202) 636-1972,,8,7,6,4
204,WASHINGTON,900 BRENTWOOD RD NE,WASHINGTON,DC,20018-1004,(202) 636-1972,,8,7,6,4
205,WASHINGTON,900 BRENTWOOD RD NE,WASHINGTON,DC,20018-1004,(202) 636-1972,,8,7,6,4
206,SOUTHERN MARYLAND,9201 EDGEWORTH DR,CAPITOL HEIGHTS,MD,20790-9998,(301) 499-7600,,8,7,6,4
207,SOUTHERN MARYLAND,9201 EDGEWORTH DR,CAPITOL HEIGHTS,MD,20790-9998,(301) 499-7600,,8,7,6,4
208,SUBURBAN MARYLAND,16501 SHADY GROVE RD,GAITHERSBURG,MD,20898-9993,(301) 670-6003,,8,7,6,4
209,SUBURBAN MARYLAND,16501 SHADY GROVE RD,GAITHERSBURG,MD,20898-9993,(301) 670-6003,,8,7,6,4
210,LINTHICUM  IMF,961 CORPORATE BLVD,LINTHICUM HEIGHTS,MD,21090-2225,(410) 691-4200,,8,7,6,4
211,LINTHICUM  IMF,961 CORPORATE BLVD,LINTHICUM HEIGHTS,MD,21090-2225,(410) 691-4200,,8,7,6,4
212,BALTIMORE,900 E FAYETTE ST RM 505,BALTIMORE,MD,21233-9998,(410) 347-4536,,8,7,6,4
214,LINTHICUM  IMF,961 CORPORATE BLVD,LINTHICUM HEIGHTS,MD,21090-2225,(410) 691-4200,,8,7,6,4
215,CUMBERLAND,215 PARK ST,CUMBERLAND,MD,21502-9998,(301) 722-8190,,8,7,6,4
216,EASTERN SHORE,29060 AIRPARK DR,EASTON,MD,21601-9997,(410) 763-7700,,8,7,6,4
217,FREDERICK,1550 TILCO DR,FREDERICK,MD,21704-9996,(301) 682-3100,,8,7,6,4
218,EASTERN SHORE,29060 AIRPARK DR,EASTON,MD,21601-9997,(410) 763-7700,,8,7,6,4
219,BALTIMORE,900 E FAYETTE ST RM 505,BALTIMORE,MD,21233-9998,(410) 347-4536,,8,7,6,4
220,NORTHERN VA,8409 LEE HWY,MERRIFIELD,VA,22081-9700,,,8,7,6,4
221,NORTHERN VA,8409 LEE HWY,MERRIFIELD,VA,22081-9700,,,8,7,6,4
222,NORTHERN VA,8409 LEE HWY,MERRIFIELD,VA,22081-9700,,,8,7,6,4
223,NORTHERN VA,8409 LEE HWY,MERRIFIELD,VA,22081-9700,,,8,7,6,4
224,RICHMOND,1801 BROOK RD,RICHMOND,VA,23232-9998,,,8,7,6,4
225,RICHMOND,1801 BROOK RD,RICHMOND,VA,23232-9998,,,8,7,6,4
226,WINCHESTER,340 N PLEASANT VALLEY RD,WINCHESTER,VA,22601-9998,,,8,7,6,4
227,CULPEPER,205 S MAIN ST,CULPEPER,VA,22701-9998,(540) 829-8435,,8,7,6,4
228,CHARLOTTESVILLE,3590 GRAND FORKS BLVD,CHARLOTTESVILLE,VA,22911-9002,,,8,7,6,4
229,CHARLOTTESVILLE,3590 GRAND FORKS BLVD,CHARLOTTESVILLE,VA,22911-9002,,,8,7,6,4
230,RICHMOND,1801 BROOK RD,RICHMOND,VA,23232-9998,,,8,7,6,4
231,RICHMOND,1801 BROOK RD,RICHMOND,VA,23232-9998,,,8,7,6,4
232,RICHMOND,1801 BROOK RD,RICHMOND,VA,23232-9998,,,8,7,6,4
233,NORFOLK,600 CHURCH ST,NORFOLK,VA,23501-9908,(757) 629-2118,,8,7,6,4
234,NORFOLK,600 CHURCH ST,NORFOLK,VA,23501-9908,(757) 629-2118,,8,7,6,4
235,NORFOLK,600 CHURCH ST,NORFOLK,VA,23501-9908,(757) 629-2118,,8,7,6,4
236,NORFOLK,600 CHURCH ST,NORFOLK,VA,23501-9908,(757) 629-2118,,8,7,6,4
237,NORFOLK,600 CHURCH ST,NORFOLK,VA,23501-9908,(757) 629-2118,,8,7,6,4
238,RICHMOND,1801 BROOK RD,RICHMOND,VA,23232-9998,,,8,7,6,4
239,FARMVILLE SCF,301 E 3RD ST,FARMVILLE,VA,23901-9998,(434) 392-3354,,8,7,6,4
240,ROANOKE,419 RUTHERFORD AVE NE,ROANOKE,VA,24022-9998,(540) 985-8779,,8,6,5,4
241,ROANOKE,419 RUTHERFORD AVE NE,ROANOKE,VA,24022-9998,(540) 985-8779,,8,6,5,4
242,BRISTOL,111 6TH ST,BRISTOL,VA,24203-9998,(540) 985-8779,,8,6,5,2
243,ROANOKE,419 RUTHERFORD AVE NE,ROANOKE,VA,24022-9998,(540) 985-8779,,8,6,5,4
244,CHARLOTTESVILLE,3590 GRAND FORKS BLVD,CHARLOTTESVILLE,VA,22911-9002,,,8,7,6,4
245,LYNCHBURG,3300 ODD FELLOWS RD,LYNCHBURG,VA,24506-9998,(540) 985-8779,,8,6,5,4
246,BLUEFIELD,3010 E CUMBERLAND RD,BLUEFIELD,WV,24701-9998,(304) 746-5002,,8,6,5,4
247,BLUEFIELD,3010 E CUMBERLAND RD,BLUEFIELD,WV,24701-9998,(304) 746-5002,,8,6,5,4
248,BLUEFIELD,3010 E CUMBERLAND RD,BLUEFIELD,WV,24701-9998,(304) 746-5002,,8,6,5,4
249,LEWISBURG,204 E WASHINGTON ST,LEWISBURG,WV,24901-9998,(304) 746-5002,,8,6,5,4
250,CHARLESTON,1000 CENTRE WAY,CHARLESTON,WV,25309-9426,(304) 746-5002,,8,6,5,4
251,CHARLESTON,1000 CENTRE WAY,CHARLESTON,WV,25309-9426,(304) 746-5002,,8,6,5,4
252,CHARLESTON,1000 CENTRE WAY,CHARLESTON,WV,25309-9426,(304) 746-5002,,8,6,5,4
253,CHARLESTON,1000 CENTRE WAY,CHARLESTON,WV,25309-9426,(304) 746-5002,,8,6,5,4
254,MARTINSBURG,1355 OLD COURTHOUSE SQ,MARTINSBURG,WV,25404-9998,(304) 746-5002,,8,7,6,4
255,HUNTINGTON,1000 VIRGINIA AVE W,HUNTINGTON,WV,25704-9998,,,8,7,6,4
256,HUNTINGTON,1000 VIRGINIA AVE W,HUNTINGTON,WV,25704-9998,,,8,7,6,4
257,HUNTINGTON,1000 VIRGINIA AVE W,HUNTINGTON,WV,25704-9998,,,8,7,6,4
258,BECKLEY,134 INDUSTRIAL DR,BECKLEY,WV,25801-9998,,,8,7,6,4
259,BECKLEY,134 INDUSTRIAL DR,BECKLEY,WV,25801-9998,,,8,7,6,4
260,WHEELING MPC,2501 CHAPLINE ST,WHEELING,WV,26003-9998,(304) 233-3912,,8,6,6,4
261,PARKERSBURG,401 JULIANA ST,PARKERSBURG,WV,26101-9998,(304) 746-5002,,8,6,5,4
262,CLARKSBURG,200 CAVA DR,CLARKSBURG,WV,26301-9997,(304) 623-7731,,8,6,5,4
263,CLARKSBURG,200 CAVA DR,CLARKSBURG,WV,26301-9997,(304) 623-7731,,8,6,5,4
264,CLARKSBURG,200 CAVA DR,CLARKSBURG,WV,26301-9997,(304) 623-7731,,8,6,5,4
265,CLARKSBURG,200 CAVA DR,CLARKSBURG,WV,26301-9997,(304) 623-7731,,8,6,5,4
266,GASSAWAY,400 ELK ST,GASSAWAY,WV,26624-9998,(304) 746-5002,,8,6,5,4
267,CUMBERLAND,215 PARK ST,CUMBERLAND,MD,21502-9998,(301) 722-8190,,8,7,6,4
268,PETERSBURG,1 POSTAL SQ,PETERSBURG,WV,26847-9998,(304) 746-5002,,8,7,6,4
270,GREENSBORO,1120 PLEASANT RIDGE RD,GREENSBORO,NC,27498-9795,(336) 931-9443,,8,6,5,3
271,GREENSBORO,1120 PLEASANT RIDGE RD,GREENSBORO,NC,27498-9795,(336) 931-9443,,8,6,5,3
272,GREENSBORO,1120 PLEASANT RIDGE RD,GREENSBORO,NC,27498-9795,(336) 931-9443,,8,6,5,3
273,GREENSBORO,1120 PLEASANT RIDGE RD,GREENSBORO,NC,27498-9795,(336) 931-9443,,8,6,5,3
274,GREENSBORO,1120 PLEASANT RIDGE RD,GREENSBORO,NC,27498-9795,(336) 931-9443,,8,6,5,3
275,RALEIGH,1 FLORETTA PL,RALEIGH,NC,27676-9803,(919) 420-5175,,8,7,6,4
276,RALEIGH,1 FLORETTA PL,RALEIGH,NC,27676-9803,(919) 420-5175,,8,7,6,4
277,RALEIGH,1 FLORETTA PL,RALEIGH,NC,27676-9803,(919) 420-5175,,8,7,6,4
278,ROCKY MOUNT,201 S GEORGE ST,ROCKY MOUNT,NC,27801-9997,(919) 420-5175,,8,7,6,4
279,ROCKY MOUNT,201 S GEORGE ST,ROCKY MOUNT,NC,27801-9997,(919) 420-5175,,8,7,6,4
280,CHARLOTTE,2901 SCOTT FUTRELL DR,CHARLOTTE,NC,28228-9880,,,8,7,6,4
281,CHARLOTTE,2901 SCOTT FUTRELL DR,CHARLOTTE,NC,28228-9880,,,8,7,6,4
282,CHARLOTTE,2901 SCOTT FUTRELL DR,CHARLOTTE,NC,28228-9880,,,8,7,6,4
283,FAYETTEVILLE,301 GREEN ST,FAYETTEVILLE,NC,28301-5027,(910) 486-2341,,8,7,6,4
284,FAYETTEVILLE,301 GREEN ST,FAYETTEVILLE,NC,28301-5027,(910) 486-2341,,8,7,6,4
285,KINSTON,208 E CASWELL ST,KINSTON,NC,28501-4995,(252) 526-4011,,8,7,6,4
286,HICKORY,110 SOMERSET DR,HICKORY,NC,28601-9378,(336) 931-9443,,8,6,5,3
287,ASHEVILLE,591 BREVARD RD,ASHEVILLE,NC,28810-9998,(828) 257-4126,,8,6,5,2
288,ASHEVILLE,591 BREVARD RD,ASHEVILLE,NC,28810-9998,(828) 257-4126,,8,6,5,2
289,ASHEVILLE,591 BREVARD RD,ASHEVILLE,NC,28810-9998,(828) 257-4126,,8,6,5,2
290,COLUMBIA,2001 DIXIANA RD,WEST COLUMBIA,SC,29172-3007,(803) 926-6120,,8,6,5,3
291,COLUMBIA,2001 DIXIANA RD,WEST COLUMBIA,SC,29172-3007,(803) 926-6120,,8,6,5,3
292,COLUMBIA,2001 DIXIANA RD,WEST COLUMBIA,SC,29172-3007,(803) 926-6120,,8,6,5,3
293,GREENVILLE,600 W WASHINGTON ST,GREENVILLE,SC,29602-9997,,,8,6,5,3
294,CHARLESTON,7075 CROSS COUNTY RD,NORTH CHARLESTON,SC,29418-3302,(843) 760-5435,,8,7,5,3
295,FLORENCE,1901 W EVANS ST,FLORENCE,SC,29501-9998,(843) 679-2451,,8,6,5,3
296,GREENVILLE,600 W WASHINGTON ST,GREENVILLE,SC,29602-9997,,,8,6,5,3
297,CHARLOTTE,2901 SCOTT FUTRELL DR,CHARLOTTE,NC,28228-9880,,,8,6,5,3
298,AUGUSTA,525 8TH ST,AUGUSTA,GA,30901-9997,(706) 823-3116,,8,6,5,2
299,SAVANNAH,210 BOURNE BLVD,SAVANNAH,GA,31408-9997,(912) 748-7558,,8,7,5,3
300,NORTH METRO,1605 BOGGS RD,DULUTH,GA,30096-8608,(770) 717-3700,,8,6,5,1
301,NORTH METRO,1605 BOGGS RD,DULUTH,GA,30096-8608,(770) 717-3700,,8,6,5,1
302,ATLANTA,3900 CROWN RD SW,ATLANTA,GA,30304-9997,(404) 765-7578,,8,6,5,1
303,ATLANTA,3900 CROWN RD SW,ATLANTA,GA,30304-9997,(404) 765-7578,,8,6,5,1
304,SWAINSBORO,211 W MORING ST,SWAINSBORO,GA,30401-9997,(478) 237-9689,,8,6,5,2
305,ATHENS,575 OLYMPIC DR,ATHENS,GA,30601-1653,(706) 369-3200,,8,6,5,1
306,ATHENS,575 OLYMPIC DR,ATHENS,GA,30601-1653,(706) 369-3200,,8,6,5,1
307,CHATTANOOGA P&DC,6050 SHALLOWFORD RD,CHATTANOOGA,TN,37421-9997,(423) 499-8231,,8,6,5,2
308,AUGUSTA,525 8TH ST,AUGUSTA,GA,30901-9997,(706) 823-3116,,8,6,5,2
309,AUGUSTA,525 8TH ST,AUGUSTA,GA,30901-9997,(706) 823-3116,,8,6,5,2
310,MACON,451 COLLEGE ST,MACON,GA,31213-9997,(478) 752-8444,,8,6,5,2
311,ATLANTA,3900 CROWN RD SW,ATLANTA,GA,30304-9997,(404) 765-7578,,8,6,5,1
312,MACON,451 COLLEGE ST,MACON,GA,31213-9997,(478) 752-8444,,8,6,5,2
313,SAVANNAH,210 BOURNE BLVD,SAVANNAH,GA,31408-9997,(912) 748-7558,,8,7,5,3
314,SAVANNAH,210 BOURNE BLVD,SAVANNAH,GA,31408-9997,(912) 748-7558,,8,7,5,3
315,WAYCROSS,601 TEBEAU ST,WAYCROSS,GA,31501-9905,(912) 287-8110,,8,7,5,3
316,VALDOSTA,401 N PATTERSON ST,VALDOSTA,GA,31601-4627,(229) 247-7115,,8,6,5,3
317,ALBANY,1501 S SLAPPEY BLVD,ALBANY,GA,31701-9997,(229) 889-2629,,8,6,5,3
318,COLUMBUS,3916 MILGEN RD,COLUMBUS,GA,31907-9992,(706) 562-1782,,8,6,5,2
319,COLUMBUS,3916 MILGEN RD,COLUMBUS,GA,31907-9992,(706) 562-1782,,8,6,5,2
320,JACKSONVILLE,1100 KINGS RD,JACKSONVILLE,FL,32203-9998,(904) 359-2819,,8,7,5,3
321,DAYTONA BEACH,500 BILL FRANCE BLVD,DAYTONA BEACH,FL,32114-9998,,,8,7,5,3
322,JACKSONVILLE,1100 KINGS RD,JACKSONVILLE,FL,32203-9998,(904) 359-2819,,8,7,5,3
323,TALLAHASSEE,2800 S ADAMS ST,TALLAHASSEE,FL,32301-9998,(850) 216-4282,,8,6,5,3
324,PANAMA CITY,1336 SHERMAN AVE,PANAMA CITY,FL,32401-4465,(850) 747-3913,,8,6,4,3
325,PENSACOLA,1400 W JORDAN ST,PENSACOLA,FL,32501-9998,(850) 434-9124,,8,6,4,3
326,GAINESVILLE,4600 SW 34TH ST,GAINESVILLE,FL,32608-9998,(352) 334-1899,,8,7,5,3
327,MID FLORIDA,800 RINEHART RD,MID FLORIDA,FL,32799-8801,(407) 333-8496,,8,7,5,4
328,ORLANDO,10401 POST OFFICE BLVD,ORLANDO,FL,32862-8499,(407) 850-6334,,8,7,5,4
329,ORLANDO,10401 POST OFFICE BLVD,ORLANDO,FL,32862-8499,(407) 850-6334,,8,7,5,4
330,SOUTH FLORIDA,16000 PINES BLVD,PEMBROKE PINES,FL,33082-9699,(305) 513-2368,,8,7,6,4
331,MIAMI,2200 NW 72ND AVE,MIAMI,FL,33152-9997,(305) 591-0479,,8,7,6,4
332,MIAMI,2200 NW 72ND AVE,MIAMI,FL,33152-9997,(305) 591-0479,,8,7,6,4
333,FORT LAUDERDALE,1900 W OAKLAND PARK BLVD,FORT LAUDERDALE,FL,33310-9998,(954) 527-2020,,8,7,6,4
334,WEST PALM BEACH,3200 SUMMIT BLVD,WEST PALM BEACH,FL,33416-3599,(561) 697-2122,,8,7,6,4
335,TAMPA P&DC,5201 W SPRUCE ST,TAMPA,FL,33630-5000,(813) 877-0778,,8,7,5,4
336,TAMPA P&DC,5201 W SPRUCE ST,TAMPA,FL,33630-5000,(813) 877-0778,,8,7,5,4
337,SAINT PETERSBURG,3135 1ST AVE N,SAINT PETERSBURG,FL,33730-9997,(727) 323-6568,,8,7,5,4
338,LAKELAND,2800 LAKELAND HILLS BLVD,LAKELAND,FL,33805-9997,(863) 802-2053,,8,7,5,4
339,FORT MYERS,14080 JETPORT LOOP RM B-111,FORT MYERS,FL,33913-9997,(239) 768-8083,,8,7,5,4
340,MIAMI,2200 NW 72ND AVE,MIAMI,FL,33152-9997,(305) 591-0479,,8,7,6,4
341,FORT MYERS,14080 JETPORT LOOP RM B-111,FORT MYERS,FL,33913-9997,(239) 768-8083,,8,7,5,4
342,MANASOTA,850 TALLEVAST RD,SARASOTA,FL,34260-5000,(941) 359-5162,,8,7,5,4
344,GAINESVILLE,4600 SW 34TH ST,GAINESVILLE,FL,32608-9998,(352) 334-1899,,8,7,5,3
346,TAMPA P&DC,5201 W SPRUCE ST,TAMPA,FL,33630-5000,(813) 877-0778,,8,7,5,4
347,ORLANDO,10401 POST OFFICE BLVD,ORLANDO,FL,32862-8499,(407) 850-6334,,8,7,5,4
349,WEST PALM BEACH,3200 SUMMIT BLVD,WEST PALM BEACH,FL,33416-3599,(561) 697-2122,,8,7,6,4
350,BIRMINGHAM,351 24TH ST N,BIRMINGHAM,AL,35203-3824,(205) 521-0367,,8,6,4,2
351,BIRMINGHAM,351 24TH ST N,BIRMINGHAM,AL,35203-3824,(205) 521-0367,,8,6,4,2
352,BIRMINGHAM,351 24TH ST N,BIRMINGHAM,AL,35203-3824,(205) 521-0367,,8,6,4,2
354,TUSCALOOSA,3201 SKYLAND BLVD E,TUSCALOOSA,AL,35405-4552,(205) 521-0367,,8,6,4,2
355,BIRMINGHAM,351 24TH ST N,BIRMINGHAM,AL,35203-3824,(205) 521-0367,,8,6,4,2
356,HUNTSVILLE,3408 WALL TRIANA HWY,HUNTSVILLE,AL,35813-1000,(205) 521-0367,,8,6,4,2
357,HUNTSVILLE,3408 WALL TRIANA HWY,HUNTSVILLE,AL,35813-1000,(205) 521-0367,,8,6,4,2
358,HUNTSVILLE,3408 WALL TRIANA HWY,HUNTSVILLE,AL,35813-1000,(205) 521-0367,,8,6,4,2
359,BIRMINGHAM,351 24TH ST N,BIRMINGHAM,AL,35203-3824,(205) 521-0367,,8,6,4,2
360,MONTGOMERY,6701 WINTON BLOUNT BLVD,MONTGOMERY,AL,36119-9998,(334) 244-7515,,8,6,4,2
361,MONTGOMERY,6701 WINTON BLOUNT BLVD,MONTGOMERY,AL,36119-9998,(334) 244-7515,,8,6,4,2
362,ANNISTON,1101 QUINTARD AVE,ANNISTON,AL,36201-4615,(205) 521-0367,,8,6,4,2
363,DOTHAN,379 N OATES ST,DOTHAN,AL,36302-4500,(205) 521-0237,,8,6,4,2
364,EVERGREEN,200 RURAL ST,EVERGREEN,AL,36401-2803,(205) 521-0367,,8,6,4,2
365,MOBILE,4538 SHIPYARD RD,MOBILE,AL,36675-9539,(205) 521-0367,,8,6,4,3
366,MOBILE,4538 SHIPYARD RD,MOBILE,AL,36675-9539,(205) 521-0367,,8,6,4,3
367,MONTGOMERY,6701 WINTON BLOUNT BLVD,MONTGOMERY,AL,36119-9998,(334) 244-7515,,8,6,4,2
368,MONTGOMERY,6701 WINTON BLOUNT BLVD,MONTGOMERY,AL,36119-9998,(334) 244-7515,,8,6,4,2
369,MERIDIAN,2100 9TH ST,MERIDIAN,MS,39301-9998,(601) 553-8000,,7,5,4,4
370,NASHVILLE P&DC,525 ROYAL PKWY RM 9997,NASHVILLE,TN,37230-9997,,,8,6,5,2
371,NASHVILLE P&DC,525 ROYAL PKWY RM 9997,NASHVILLE,TN,37230-9997,,,8,6,5,2
372,NASHVILLE P&DC,525 ROYAL PKWY RM 9997,NASHVILLE,TN,37230-9997,,,8,6,5,2
373,CHATTANOOGA P&DC,6050 SHALLOWFORD RD,CHATTANOOGA,TN,37421-9997,(423) 499-8231,,8,6,5,2
374,CHATTANOOGA P&DC,6050 SHALLOWFORD RD,CHATTANOOGA,TN,37421-9997,(423) 499-8231,,8,6,5,2
375,MEMPHIS P&DC,638 S 2ND ST,MEMPHIS,TN,38101-7900,(901) 521-2182,,7,5,4,4
376,JOHNSON CITY P&DC,530 E MAIN ST,JOHNSON CITY,TN,37601-9998,(423) 232-5840,,8,6,5,2
377,KNOXVILLE,1237 E WEISGARBER RD,KNOXVILLE,TN,37950-9998,(865) 558-4629,,8,6,5,2
378,KNOXVILLE,1237 E WEISGARBER RD,KNOXVILLE,TN,37950-9998,(865) 558-4629,,8,6,5,2
379,KNOXVILLE,1237 E WEISGARBER RD,KNOXVILLE,TN,37950-9998,(865) 558-4629,,8,6,5,2
380,MEMPHIS P&DC,638 S 2ND ST,MEMPHIS,TN,38101-7900,(901) 521-2182,,7,5,4,4
381,MEMPHIS P&DC,638 S 2ND ST,MEMPHIS,TN,38101-7900,(901) 521-2182,,7,5,4,4
382,MCKENZIE,15075 HIGHLAND DR,MC KENZIE,TN,38201-9998,(731) 352-7977,,7,5,4,4
383,JACKSON,200  DR MARTIN LUTHER KING JR  DR,JACKSON,TN,38301-,(731) 423-2596,,7,5,4,4
384,COLUMBIA,417 W 7TH ST,COLUMBIA,TN,38401-9998,(931) 381-7150,,8,5,4,3
385,COOKEVILLE,900 S WILLOW AVE,COOKEVILLE,TN,38501-4149,(931) 526-2107,,8,5,4,3
386,MEMPHIS P&DC,638 S 2ND ST,MEMPHIS,TN,38101-7900,(901) 521-2182,,7,5,4,4
387,GREENVILLE,305 MAIN ST STE 154,GREENVILLE,MS,38701-9998,(662) 335-4524,,7,5,4,4
388,TUPELO,362 S THOMAS ST,TUPELO,MS,38801-9998,(662) 791-8430,,7,5,4,4
389,GRENADA,2500 GATEWAY ST,GRENADA,MS,38901-9998,(662) 226-5521,,7,5,4,4
390,JACKSON,401 E SOUTH ST,JACKSON,MS,39201-9997,(601) 351-7097,,7,5,4,4
391,JACKSON,401 E SOUTH ST,JACKSON,MS,39201-9997,(601) 351-7097,,7,5,4,4
392,JACKSON,401 E SOUTH ST,JACKSON,MS,39201-9997,(601) 351-7097,,7,5,4,4
393,MERIDIAN,2100 9TH ST,MERIDIAN,MS,39301-9998,(601) 553-8000,,7,5,4,4
394,HATTIESBURG,220 S 40TH AVE,HATTIESBURG,MS,39402-9998,(601) 271-7080,,8,6,4,4
395,GULFPORT,10285 CORPORATE DR,GULFPORT,MS,39503-9997,(228) 897-7580,,8,6,4,4
396,MCCOMB,530 DELAWARE AVE,MCCOMB,MS,39648-9998,,,8,6,4,4
397,COLUMBUS,3202 BLUECUTT RD,COLUMBUS,MS,39705-9998,(662) 328-2313,,7,5,4,4
398,ALBANY,1501 S SLAPPEY BLVD,ALBANY,GA,31701-9997,(229) 889-2629,,8,6,5,3
399,ATLANTA,3900 CROWN RD SW,ATLANTA,GA,30304-9997,(404) 765-7578,,8,6,5,1
400,LOUISVILLE,1420 GARDINER LN,LOUISVILLE,KY,40231-9989,(502) 454-1745,,8,6,5,4
401,LOUISVILLE,1420 GARDINER LN,LOUISVILLE,KY,40231-9989,(502) 454-1745,,8,6,5,4
402,LOUISVILLE,1420 GARDINER LN,LOUISVILLE,KY,40231-9989,(502) 454-1745,,8,6,5,4
403,LEXINGTON,1088 NANDINO BLVD,LEXINGTON,KY,40511-9998,(502) 454-1745,,8,6,5,3
404,LEXINGTON,1088 NANDINO BLVD,LEXINGTON,KY,40511-9998,(502) 454-1745,,8,6,5,3
405,LEXINGTON,1088 NANDINO BLVD,LEXINGTON,KY,40511-9998,(502) 454-1745,,8,6,5,3
406,LEXINGTON,1088 NANDINO BLVD,LEXINGTON,KY,40511-9998,(502) 454-1745,,8,6,5,3
407,LONDON,1760 HIGHWAY 192 W,LONDON,KY,40741-9998,(502) 454-1745,,8,6,5,2
408,LONDON,1760 HIGHWAY 192 W,LONDON,KY,40741-9998,(502) 454-1745,,8,6,5,2
409,LONDON,1760 HIGHWAY 192 W,LONDON,KY,40741-9998,(502) 454-1745,,8,6,5,2
410,CINCINNATI,1591 DALTON AVE,CINCINNATI,OH,45234-9998,(513) 684-5763,,8,6,5,4
411,ASHLAND,1140 CARTER AVE,ASHLAND,KY,41101-9998,(502) 454-1745,,8,6,5,4
412,ASHLAND,1140 CARTER AVE,ASHLAND,KY,41101-9998,(502) 454-1745,,8,6,5,4
413,CAMPTON,175 MOUNTAIN PARKWAY SPUR,CAMPTON,KY,41301-9998,(502) 454-1745,,8,6,5,3
414,CAMPTON,175 MOUNTAIN PARKWAY SPUR,CAMPTON,KY,41301-9998,(502) 454-1745,,8,6,5,3
415,PIKEVILLE,305 THOMPSON RD,PIKEVILLE,KY,41501-9998,(502) 454-1745,,8,6,5,4
416,PIKEVILLE,305 THOMPSON RD,PIKEVILLE,KY,41501-9998,(502) 454-1745,,8,6,5,4
417,HAZARD,201 BLACK GOLD BLVD,HAZARD,KY,41701-9998,(502) 454-1745,,8,6,5,2
418,HAZARD,201 BLACK GOLD BLVD,HAZARD,KY,41701-9998,(502) 454-1745,,8,6,5,2
420,PADUCAH,300 S 4TH ST,PADUCAH,KY,42003-9998,(502) 454-1745,,7,5,4,4
421,BOWLING GREEN,5300 SCOTTSVILLE RD,BOWLING GREEN,KY,42104-9997,(502) 454-1745,,8,5,4,3
422,BOWLING GREEN,5300 SCOTTSVILLE RD,BOWLING GREEN,KY,42104-9997,(502) 454-1745,,8,5,4,3
423,OWENSBORO,54 BON HARBOR HLS,OWENSBORO,KY,42301-9998,(502) 454-1745,,7,5,4,4
424,EVANSVILLE,,,,-,,,8,6,5,2
425,SOMERSET,119 N MAPLE ST,SOMERSET,KY,42501-9998,(502) 454-1745,,8,6,5,2
426,SOMERSET,119 N MAPLE ST,SOMERSET,KY,42501-9998,(502) 454-1745,,8,6,5,2
427,ELIZABETHTOWN,2934 DOLPHIN DR,ELIZABETHTOWN,KY,42701-9998,(502) 454-1745,,8,6,5,4
430,COLUMBUS,2323 CITYGATE DR,COLUMBUS,OH,43218-9997,(614) 472-0237,,8,6,5,4
431,COLUMBUS,2323 CITYGATE DR,COLUMBUS,OH,43218-9997,(614) 472-0237,,8,6,5,4
432,COLUMBUS,2323 CITYGATE DR,COLUMBUS,OH,43218-9997,(614) 472-0237,,8,6,5,4
433,COLUMBUS,2323 CITYGATE DR,COLUMBUS,OH,43218-9997,(614) 472-0237,,8,6,5,4
434,TOLEDO,435 S SAINT CLAIR ST,TOLEDO,OH,43601-9998,(513) 684-5763,,8,6,5,4
435,TOLEDO,435 S SAINT CLAIR ST,TOLEDO,OH,43601-9998,(513) 684-5763,,8,6,5,4
436,TOLEDO,435 S SAINT CLAIR ST,TOLEDO,OH,43601-9998,(513) 684-5763,,8,6,5,4
437,ZANESVILLE,900 MCINTIRE AVE,ZANESVILLE,OH,43701-9992,,,8,6,5,4
438,ZANESVILLE,900 MCINTIRE AVE,ZANESVILLE,OH,43701-9992,,,8,6,5,4
439,STEUBENVILLE,150 N 3RD ST,STEUBENVILLE,OH,43952-9998,(740) 282-6221,,8,6,6,4
440,CLEVELAND,2400 ORANGE AVE RM 30,CLEVELAND,OH,44101-9701,(216) 443-4255,,8,6,5,4
441,CLEVELAND,2400 ORANGE AVE RM 30,CLEVELAND,OH,44101-9701,(216) 443-4255,,8,6,5,4
442,AKRON,675 WOLF LEDGES PKWY,AKRON,OH,44309-9902,(330) 996-9798,,8,6,5,4
443,AKRON,675 WOLF LEDGES PKWY,AKRON,OH,44309-9902,(330) 996-9798,,8,6,5,4
444,YOUNGSTOWN,99 S WALNUT ST RM 289,YOUNGSTOWN,OH,44501-9993,(330) 740-8808,,8,6,5,4
445,YOUNGSTOWN,99 S WALNUT ST RM 289,YOUNGSTOWN,OH,44501-9993,(330) 740-8808,,8,6,5,4
446,CANTON,2650 CLEVELAND AVE NW,CANTON,OH,44711-9998,(330) 996-9798,,8,6,5,4
447,CANTON,2650 CLEVELAND AVE NW,CANTON,OH,44711-9998,(330) 996-9798,,8,6,5,4
448,MANSFIELD,200 N DIAMOND ST,MANSFIELD,OH,44901-9997,(330) 996-9798,,8,6,5,4
449,MANSFIELD,200 N DIAMOND ST,MANSFIELD,OH,44901-9997,(330) 996-9798,,8,6,5,4
450,CINCINNATI,1591 DALTON AVE,CINCINNATI,OH,45234-9998,(513) 684-5763,,8,6,5,4
451,CINCINNATI,1591 DALTON AVE,CINCINNATI,OH,45234-9998,(513) 684-5763,,8,6,5,4
452,CINCINNATI,1591 DALTON AVE,CINCINNATI,OH,45234-9998,(513) 684-5763,,8,6,5,4
453,DAYTON,1111 E 5TH ST,DAYTON,OH,45401-9998,(937) 684-5763,,8,6,5,4
454,DAYTON,1111 E 5TH ST,DAYTON,OH,45401-9998,(937) 684-5763,,8,6,5,4
455,DAYTON,1111 E 5TH ST,DAYTON,OH,45401-9998,(937) 684-5763,,8,6,5,4
456,CHILLICOTHE,40 S WALNUT ST,CHILLICOTHE,OH,45601-3257,(740) 774-1181,,8,6,5,4
457,ATHENS,5 W STIMSON AVE,ATHENS,OH,45701-2668,(614) 472-0674,,8,6,5,4
458,LIMA,701 E HANTHORN RD,LIMA,OH,45804-9997,,,8,6,5,4
460,INDIANAPOLIS,125 W SOUTH ST,INDIANAPOLIS,IN,46206-9997,(317) 464-6305,,8,5,5,4
461,INDIANAPOLIS,125 W SOUTH ST,INDIANAPOLIS,IN,46206-9997,(317) 464-6305,,8,5,5,4
462,INDIANAPOLIS,125 W SOUTH ST,INDIANAPOLIS,IN,46206-9997,(317) 464-6305,,8,5,5,4
463,GARY,1499 MARTIN LUTHER KING DR,GARY,IN,46401-9997,(219) 886-8051,,7,5,5,4
464,GARY,1499 MARTIN LUTHER KING DR,GARY,IN,46401-9997,(219) 886-8051,,7,5,5,4
465,SOUTH BEND,424 S MICHIGAN ST,SOUTH BEND,IN,46601-9997,(317) 464-6305,,8,5,5,4
466,SOUTH BEND,424 S MICHIGAN ST,SOUTH BEND,IN,46601-9997,(317) 464-6305,,8,5,5,4
467,FORT WAYNE,1501 S CLINTON ST,FORT WAYNE,IN,46802-9998,(317) 464-6305,,8,6,5,4
468,FORT WAYNE,1501 S CLINTON ST,FORT WAYNE,IN,46802-9998,(317) 464-6305,,8,6,5,4
469,KOKOMO,2719 S WEBSTER ST,KOKOMO,IN,46902-9998,(765) 455-8322,,8,5,5,4
470,CINCINNATI,1591 DALTON AVE,CINCINNATI,OH,45234-9998,(513) 684-5763,,8,6,5,4
471,LOUISVILLE,1420 GARDINER LN,LOUISVILLE,KY,40231-9989,(502) 454-1745,,8,6,5,4
472,COLUMBUS,450 JACKSON ST,COLUMBUS,IN,47201-9998,(317) 464-6305,,8,5,5,4
473,MUNCIE,4300 S COWAN RD,MUNCIE,IN,47302-9997,(317) 464-6305,,8,6,5,4
474,BLOOMINGTON,4738 W VERNAL PIKE,BLOOMINGTON,IN,47404-9997,(317) 464-6305,,8,5,5,4
475,TERRE HAUTE,150 W MARGARET DR,TERRE HAUTE,IN,47802-9997,(317) 464-6305,,8,5,5,4
476,EVANSVILLE,,,,-,,,8,5,5,4
477,EVANSVILLE,,,,-,,,8,5,5,4
478,TERRE HAUTE,150 W MARGARET DR,TERRE HAUTE,IN,47802-9997,(317) 464-6305,,8,5,5,4
479,LAFAYETTE,3450 STATE ROAD 26 E,LAFAYETTE,IN,47901-9998,(317) 464-6305,,8,5,5,4
480,ROYAL OAK,2351 BELLINGHAM DR,TROY,MI,48083-2000,,,8,6,5,4
481,DETROIT,1401 W FORT ST RM 1022,DETROIT,MI,48233-9997,(313) 337-2132,,8,6,5,4
482,DETROIT,1401 W FORT ST RM 1022,DETROIT,MI,48233-9997,(313) 337-2132,,8,6,5,4
483,ROYAL OAK,2351 BELLINGHAM DR,TROY,MI,48083-2000,,,8,6,5,4
484,FLINT,250 E BOULEVARD DR,FLINT,MI,48502-9998,(810) 257-1580,,8,6,5,4
485,FLINT,250 E BOULEVARD DR,FLINT,MI,48502-9998,(810) 257-1580,,8,6,5,4
486,SAGINAW,1233 S WASHINGTON AVE,SAGINAW,MI,48601-2510,(989) 771-5727,,8,6,5,4
487,SAGINAW,1233 S WASHINGTON AVE,SAGINAW,MI,48601-2510,(989) 771-5727,,8,6,5,4
488,LANSING,4800 COLLINS RD,LANSING,MI,48924-9998,(517) 337-8775,,8,6,5,5
489,LANSING,4800 COLLINS RD,LANSING,MI,48924-9998,(517) 337-8775,,8,6,5,5
490,KALAMAZOO,3885 S 9TH ST,KALAMAZOO,MI,49009-9997,(269) 353-5000,,8,5,5,5
491,KALAMAZOO,3885 S 9TH ST,KALAMAZOO,MI,49009-9997,(269) 353-5000,,8,5,5,5
492,JACKSON,1500 N ELM AVE,JACKSON,MI,49202-9998,(517) 768-0726,,8,6,5,4
493,GRAND RAPIDS,225 MICHIGAN ST NW,GRAND RAPIDS,MI,49501-9998,,,8,5,5,5
494,GRAND RAPIDS,225 MICHIGAN ST NW,GRAND RAPIDS,MI,49501-9998,,,8,5,5,5
495,GRAND RAPIDS,225 MICHIGAN ST NW,GRAND RAPIDS,MI,49501-9998,,,8,5,5,5
496,TRAVERSE CITY,1801 GARFIELD RD N,TRAVERSE CITY,MI,49686-9997,,,8,6,5,5
497,GAYLORD,289 W COMMERCE BLVD,GAYLORD,MI,49735-7331,,,8,6,5,5
498,IRON MOUNTAIN,700 W BREITUNG AVE,KINGSFORD,MI,49802-9997,(906) 776-2002,,7,5,5,5
499,IRON MOUNTAIN,700 W BREITUNG AVE,KINGSFORD,MI,49802-9997,(906) 776-2002,,7,5,5,5
500,DES MOINES,1165 2ND AVE,DES MOINES,IA,50318-9997,(515) 283-7530,,7,4,5,5
501,DES MOINES,1165 2ND AVE,DES MOINES,IA,50318-9997,(515) 283-7530,,7,4,5,5
502,DES MOINES,1165 2ND AVE,DES MOINES,IA,50318-9997,(515) 283-7530,,7,4,5,5
503,DES MOINES,1165 2ND AVE,DES MOINES,IA,50318-9997,(515) 283-7530,,7,4,5,5
504,WATERLOO,300 SYCAMORE ST,WATERLOO,IA,50701-4649,(319) 274-2221,,7,5,5,5
505,FORT DODGE,3440 MAPLE DR,FORT DODGE,IA,50501-6401,(515) 573-4130,,7,4,5,5
506,WATERLOO,300 SYCAMORE ST,WATERLOO,IA,50701-4649,(319) 274-2221,,7,5,5,5
507,WATERLOO,300 SYCAMORE ST,WATERLOO,IA,50701-4649,(319) 274-2221,,7,5,5,5
508,CRESTON,300 S ELM ST,CRESTON,IA,50801-3600,(641) 782-2184,,7,4,5,5
509,DES MOINES,1165 2ND AVE,DES MOINES,IA,50318-9997,(515) 283-7530,,7,4,5,5
510,SIOUX CITY,2901 MURPHY DR,SIOUX CITY,IA,51111-9997,,,7,4,5,5
511,SIOUX CITY,2901 MURPHY DR,SIOUX CITY,IA,51111-9997,,,7,4,5,5
512,SIOUX CITY,2901 MURPHY DR,SIOUX CITY,IA,51111-9997,,,7,4,5,5
513,SIOUX CITY,2901 MURPHY DR,SIOUX CITY,IA,51111-9997,,,7,4,5,5
514,CARROLL,614 N CLARK ST,CARROLL,IA,51401-9998,(712) 792-2341,,7,4,5,5
515,OMAHA,1124 PACIFIC ST,OMAHA,NE,68108-9998,(402) 348-2602,,6,4,4,5
516,OMAHA,1124 PACIFIC ST,OMAHA,NE,68108-9998,(402) 348-2602,,6,4,4,5
520,DUBUQUE,750 WHITE ST STE 1,DUBUQUE,IA,52001-9997,(563) 582-4365,,7,5,5,5
521,DECORAH,401 HEIVLY ST,DECORAH,IA,52101-1463,(563) 382-2903,,7,5,5,5
522,CEDAR RAPIDS,615 6TH AVE SE,CEDAR RAPIDS,IA,52401-9997,(319) 399-2946,,7,5,5,5
523,CEDAR RAPIDS,615 6TH AVE SE,CEDAR RAPIDS,IA,52401-9997,(319) 399-2946,,7,5,5,5
524,CEDAR RAPIDS,615 6TH AVE SE,CEDAR RAPIDS,IA,52401-9997,(319) 399-2946,,7,5,5,5
525,DES MOINES,1165 2ND AVE,DES MOINES,IA,50318-9997,(515) 283-7530,,7,4,5,5
526,BURLINGTON,300 N MAIN ST,BURLINGTON,IA,52601-5215,(319) 754-7581,,7,5,5,5
527,QUAD CITIES,7700 68TH ST,MILAN,IL,61264-9997,(309) 799-4081,,7,5,5,5
528,QUAD CITIES,7700 68TH ST,MILAN,IL,61264-9997,(309) 799-4081,,7,5,5,5
530,MILWAUKEE,300 N 6TH ST,MILWAUKEE,WI,53203-3207,(414) 270-2066,,7,5,5,5
531,MILWAUKEE,300 N 6TH ST,MILWAUKEE,WI,53203-3207,(414) 270-2066,,7,5,5,5
532,MILWAUKEE,300 N 6TH ST,MILWAUKEE,WI,53203-3207,(414) 270-2066,,7,5,5,5
534,MILWAUKEE,300 N 6TH ST,MILWAUKEE,WI,53203-3207,(414) 270-2066,,7,5,5,5
535,MADISON,3902 MILWAUKEE ST,MADISON,WI,53714-9998,(608) 246-1284,,7,5,5,5
537,MADISON,3902 MILWAUKEE ST,MADISON,WI,53714-9998,(608) 246-1284,,7,5,5,5
538,MADISON,3902 MILWAUKEE ST,MADISON,WI,53714-9998,(608) 246-1284,,7,5,5,5
539,PORTAGE,215 W CONANT ST,PORTAGE,WI,53901-9998,(608) 742-5012,,7,5,5,5
540,SAINT PAUL,180 KELLOGG BLVD E,SAINT PAUL,MN,55101-1438,,,7,5,5,5
541,GREEN BAY,300 PACKERLAND DR,GREEN BAY,WI,54303-9998,(920) 498-3885,,7,5,5,5
542,GREEN BAY,300 PACKERLAND DR,GREEN BAY,WI,54303-9998,(920) 498-3885,,7,5,5,5
543,GREEN BAY,300 PACKERLAND DR,GREEN BAY,WI,54303-9998,(920) 498-3885,,7,5,5,5
544,WAUSAU,400 CRESKE AVE,ROTHSCHILD,WI,54474-7955,(715) 241-3800,,7,5,5,5
545,RHINELANDER,156 S COURTNEY ST,RHINELANDER,WI,54501-9998,(715) 369-6813,,7,5,5,5
546,LA CROSSE,425 STATE ST,LA CROSSE,WI,54601-3346,(612) 293-3064,,7,5,5,5
547,EAU CLAIRE,3510 HOGARTH ST,EAU CLAIRE,WI,54703-0487,(651) 293-3064,,7,5,5,5
548,SPOONER,422 N FRONT ST,SPOONER,WI,54801-1402,(612) 293-3064,,7,5,5,5
549,OSHKOSH,1025 W 20TH AVE,OSHKOSH,WI,54902-9998,(920) 236-0201,,7,5,5,5
550,SAINT PAUL,180 KELLOGG BLVD E,SAINT PAUL,MN,55101-1438,,,7,5,5,5
551,SAINT PAUL,180 KELLOGG BLVD E,SAINT PAUL,MN,55101-1438,,,7,5,5,5
553,MINNEAPOLIS,100 S 1ST ST,MINNEAPOLIS,MN,55401-2002,(612) 349-6346,,7,5,5,5
554,MINNEAPOLIS,100 S 1ST ST,MINNEAPOLIS,MN,55401-2002,(612) 349-6346,,7,5,5,5
555,MINNEAPOLIS,100 S 1ST ST,MINNEAPOLIS,MN,55401-2002,(612) 349-6346,,7,5,5,5
556,DULUTH,2800 W MICHIGAN ST,DULUTH,MN,55806-9998,(218) 723-2575,,7,5,5,5
557,DULUTH,2800 W MICHIGAN ST,DULUTH,MN,55806-9998,(218) 723-2575,,7,5,5,5
558,DULUTH,2800 W MICHIGAN ST,DULUTH,MN,55806-9998,(218) 723-2575,,7,5,5,5
559,ROCHESTER,3939 VALLEYHIGH RD NW,ROCHESTER,MN,55901-2208,(651) 293-3064,,7,5,5,5
560,MANKATO,851 SUMMIT AVE,MANKATO,MN,56001-9997,(507) 625-7527,,7,5,5,5
561,MANKATO,851 SUMMIT AVE,MANKATO,MN,56001-9997,(507) 625-7527,,7,5,5,5
562,WILLMAR,401 TROTT AVE SW,WILLMAR,MN,56201-3367,(612) 235-2472,,7,5,5,5
563,SAINT CLOUD,517 10TH AVE S,WAITE PARK,MN,56387-1519,(218) 723-2512,,7,5,5,5
564,BRAINERD,422 LAUREL ST,BRAINERD,MN,56401-3556,(218) 723-2512,,7,5,5,5
565,DETROIT LAKES,250 STATE ST W,DETROIT LAKES,MN,56501-9998,(218) 846-0285,,6,5,5,6
566,BEMIDJI,401 IRVINE AVE NW,BEMIDJI,MN,56601-9998,(218) 723-2512,,7,5,5,6
567,GRAND FORKS,2501 28TH AVE S,GRAND FORKS,ND,58201-9998,(701) 335-2001,,6,5,6,6
570,SIOUX FALLS,4801 N 4TH AVE,SIOUX FALLS,SD,57104-9300,(605) 357-4901,,6,4,5,5
571,SIOUX FALLS,4801 N 4TH AVE,SIOUX FALLS,SD,57104-9300,(605) 357-4901,,6,4,5,5
572,DAKOTA CENTRAL,355 15TH ST NW,HURON,SD,57399-9998,(605) 352-9835,,6,4,5,6
573,DAKOTA CENTRAL,355 15TH ST NW,HURON,SD,57399-9998,(605) 352-9835,,6,4,5,6
574,ABERDEEN,1202 S 5TH ST,ABERDEEN,SD,57401-9998,(605) 226-2673,,6,4,5,6
575,PIERRE,225 S PIERRE ST,PIERRE,SD,57501-2419,(605) 224-1204,,6,4,5,6
576,MOBRIDGE,404 N MAIN ST,MOBRIDGE,SD,57601-9998,(605) 845-5770,,6,4,5,6
577,RAPID CITY,500 EAST BLVD,RAPID CITY,SD,57701-9998,(605) 355-2819,,5,3,5,6
580,FARGO,657 2ND AVE N OFC,FARGO,ND,58102-4702,(701) 241-6115,,6,5,5,6
581,FARGO,657 2ND AVE N OFC,FARGO,ND,58102-4702,(701) 241-6115,,6,5,5,6
582,GRAND FORKS,2501 28TH AVE S,GRAND FORKS,ND,58201-9998,(701) 335-2001,,6,5,6,6
583,DEVILS LAKE,502 3RD ST NE,DEVILS LAKE,ND,58301-9998,(701) 662-7132,,6,5,6,6
584,JAMESTOWN,212 2ND ST SW,JAMESTOWN,ND,58401-9998,(701) 252-3855,,6,5,5,6
585,BISMARCK P & DF,2220 E BISMARCK EXPY RM 212,BISMARCK,ND,58504-9998,(701) 221-6553,,6,4,5,6
586,BISMARCK P & DF,2220 E BISMARCK EXPY RM 212,BISMARCK,ND,58504-9998,(701) 221-6553,,6,4,5,6
587,MINOT,117 5TH AVE SW,MINOT,ND,58701-9998,(701) 857-6155,,6,4,5,6
588,WILLISTON,120 E BROADWAY,WILLISTON,ND,58801-9998,(701) 572-2408,,6,4,5,6
590,BILLINGS,841 S 26TH ST,BILLINGS,MT,59101-4561,(406) 657-5745,,5,4,6,7
591,BILLINGS,841 S 26TH ST,BILLINGS,MT,59101-4561,(406) 657-5745,,5,4,6,7
592,WOLF POINT,131 FRONT ST,WOLF POINT,MT,59201-9998,(406) 653-2802,,5,4,6,7
593,MILES CITY,106 N 7TH ST,MILES CITY,MT,59301-9998,(406) 232-2586,,5,4,6,7
594,GREAT FALLS,1409 14TH ST SW,GREAT FALLS,MT,59404-9991,(406) 657-5713,,5,5,6,7
595,HAVRE,115 3RD ST,HAVRE,MT,59501-9998,(406) 265-5581,,5,5,6,7
596,HELENA,2300 N HARRIS ST,HELENA,MT,59601-9998,(406) 443-3304,,5,5,6,7
597,BUTTE,701 DEWEY BLVD,BUTTE,MT,59701-9998,(406) 494-2107,,5,4,6,7
598,MISSOULA,1100 W KENT AVE,MISSOULA,MT,59801-9998,(406) 329-2200,,5,5,6,7
599,KALISPELL,350 N MERIDIAN RD,KALISPELL,MT,59901-9998,(406) 755-6450,,5,5,6,7
600,PALATINE,1300 E NORTHWEST HWY,PALATINE,IL,60095-9997,(847) 590-6666,,7,5,5,4
601,CAROL STREAM,500 FULLERTON AVE,CAROL STREAM,IL,60199-9997,(630) 260-5412,,7,5,5,4
602,PALATINE,1300 E NORTHWEST HWY,PALATINE,IL,60095-9997,(847) 590-6666,,7,5,5,4
603,CAROL STREAM,500 FULLERTON AVE,CAROL STREAM,IL,60199-9997,(630) 260-5412,,7,5,5,4
604,SOUTH SUBURBAN,6801 W 73RD ST,BEDFORD PARK,IL,60499-9998,(708) 563-5789,,7,5,5,4
605,FOX VALLEY,3900 GABRIELLE LN,FOX VALLEY,IL,60599-9998,(708) 563-5789,,7,5,5,4
606,CHICAGO,433 W HARRISON ST,CHICAGO,IL,60699-3916,(312) 983-8765,,7,5,5,4
607,CHICAGO,433 W HARRISON ST,CHICAGO,IL,60699-3916,(312) 983-8765,,7,5,5,4
608,CHICAGO,433 W HARRISON ST,CHICAGO,IL,60699-3916,(312) 983-8765,,7,5,5,4
609,KANKAKEE,475 E COURT ST,KANKAKEE,IL,60901-9998,(217) 373-6050,,7,5,5,4
610,ROCKFORD,5225 HARRISON AVE,ROCKFORD,IL,61125-9997,(815) 229-4806,,7,5,5,4
611,ROCKFORD,5225 HARRISON AVE,ROCKFORD,IL,61125-9997,(815) 229-4806,,7,5,5,4
612,QUAD CITIES,7700 68TH ST,MILAN,IL,61264-9997,(309) 799-4081,,7,5,5,5
613,LA SALLE,2950 CHARTRES ST,LA SALLE,IL,61301-9812,(708) 563-7318,,7,5,5,4
614,GALESBURG,476 E MAIN ST,GALESBURG,IL,61401-9998,(708) 563-7318,,7,5,5,4
615,PEORIA,95 STATE ST,PEORIA,IL,61601-9998,(309) 671-8819,,7,5,5,4
616,PEORIA,95 STATE ST,PEORIA,IL,61601-9998,(309) 671-8819,,7,5,5,4
617,BLOOMINGTON,1511 E EMPIRE ST,BLOOMINGTON,IL,61701-9988,(309) 671-8819,,7,5,5,4
618,CHAMPAIGN,2001 N MATTIS AVE,CHAMPAIGN,IL,61821-9998,(217) 373-6050,,7,5,5,4
619,CHAMPAIGN,2001 N MATTIS AVE,CHAMPAIGN,IL,61821-9998,(217) 373-6050,,7,5,5,4
620,SAINT LOUIS,1720 MARKET ST,SAINT LOUIS,MO,63155-9903,(314) 436-4117,,7,5,4,4
622,SAINT LOUIS,1720 MARKET ST,SAINT LOUIS,MO,63155-9903,(314) 436-4117,,7,5,4,4
623,QUINCY,4330 POSTAL DR,QUINCY,IL,62305-9997,(217) 224-9227,,7,5,4,4
624,EFFINGHAM,210 N 3RD ST,EFFINGHAM,IL,62401-9998,(217) 342-6311,,7,5,5,4
625,SPRINGFIELD,2105 E COOK ST,SPRINGFIELD,IL,62703-9998,(217) 788-7251,,7,5,4,4
626,SPRINGFIELD,2105 E COOK ST,SPRINGFIELD,IL,62703-9998,(217) 788-7251,,7,5,4,4
627,SPRINGFIELD,2105 E COOK ST,SPRINGFIELD,IL,62703-9998,(217) 788-7251,,7,5,4,4
628,CENTRALIA,314 S POPLAR ST,CENTRALIA,IL,62801-9998,(618) 532-6717,,7,5,4,4
629,CARBONDALE,1301 E MAIN ST,CARBONDALE,IL,62901-9997,(618) 351-5651,,7,5,4,4
630,SAINT LOUIS,1720 MARKET ST,SAINT LOUIS,MO,63155-9903,(314) 436-4117,,7,5,4,4
631,SAINT LOUIS,1720 MARKET ST,SAINT LOUIS,MO,63155-9903,(314) 436-4117,,7,5,4,4
633,SAINT LOUIS,1720 MARKET ST,SAINT LOUIS,MO,63155-9903,(314) 436-4117,,7,5,4,4
634,QUINCY,4330 POSTAL DR,QUINCY,IL,62305-9997,(217) 224-9227,,7,5,4,4
635,QUINCY,4330 POSTAL DR,QUINCY,IL,62305-9997,(217) 224-9227,,7,5,4,4
636,CAPE GIRARDEAU,475 KELL FARM DR,CAPE GIRARDEAU,MO,63701-9706,(816) 504-3331,,7,5,4,4
637,CAPE GIRARDEAU,475 KELL FARM DR,CAPE GIRARDEAU,MO,63701-9706,(816) 504-3331,,7,5,4,4
638,CAPE GIRARDEAU,475 KELL FARM DR,CAPE GIRARDEAU,MO,63701-9706,(816) 504-3331,,7,5,4,4
639,CAPE GIRARDEAU,475 KELL FARM DR,CAPE GIRARDEAU,MO,63701-9706,(816) 504-3331,,7,5,4,4
640,KANSAS CITY,1700 CLEVELAND AVE,KANSAS CITY,MO,64121-9997,(816) 504-3200,,7,4,4,5
641,KANSAS CITY,1700 CLEVELAND AVE,KANSAS CITY,MO,64121-9997,(816) 504-3200,,7,4,4,5
644,SAINT JOSEPH,201 S 8TH ST,SAINT JOSEPH,MO,64501-9998,(816) 504-3331,,7,4,4,5
645,SAINT JOSEPH,201 S 8TH ST,SAINT JOSEPH,MO,64501-9998,(816) 504-3331,,7,4,4,5
646,CHILLICOTHE,401 S WASHINGTON ST,CHILLICOTHE,MO,64601-9998,(816) 504-3331,,7,4,4,5
647,HARRISONVILLE,1808 W VINE ST,HARRISONVILLE,MO,64701-4022,(816) 504-3331,,7,4,4,5
648,SPRINGFIELD,500 W CHESTNUT EXPY,SPRINGFIELD,MO,65801-9998,(816) 504-3331,,7,5,4,4
649,KANSAS CITY,1700 CLEVELAND AVE,KANSAS CITY,MO,64121-9997,(816) 504-3200,,7,4,4,5
650,MID MISSOURI,11450 S AIRPORT DR,COLUMBIA,MO,65299-0001,(573) 874-6558,,7,5,4,4
651,MID MISSOURI,11450 S AIRPORT DR,COLUMBIA,MO,65299-0001,(573) 874-6558,,7,5,4,4
652,MID MISSOURI,11450 S AIRPORT DR,COLUMBIA,MO,65299-0001,(573) 874-6558,,7,5,4,4
653,MID MISSOURI,11450 S AIRPORT DR,COLUMBIA,MO,65299-0001,(573) 874-6558,,7,5,4,4
654,SPRINGFIELD,500 W CHESTNUT EXPY,SPRINGFIELD,MO,65801-9998,(816) 504-3331,,7,5,4,4
655,SPRINGFIELD,500 W CHESTNUT EXPY,SPRINGFIELD,MO,65801-9998,(816) 504-3331,,7,5,4,4
656,SPRINGFIELD,500 W CHESTNUT EXPY,SPRINGFIELD,MO,65801-9998,(816) 504-3331,,7,5,4,4
657,SPRINGFIELD,500 W CHESTNUT EXPY,SPRINGFIELD,MO,65801-9998,(816) 504-3331,,7,5,4,4
658,SPRINGFIELD,500 W CHESTNUT EXPY,SPRINGFIELD,MO,65801-9998,(816) 504-3331,,7,5,4,4
660,KANSAS CITY,5215 RICHLAND AVE,KANSAS CITY,KS,66106-9724,,,7,5,4,5
661,KANSAS CITY,5215 RICHLAND AVE,KANSAS CITY,KS,66106-9724,,,7,5,4,5
662,KANSAS CITY,5215 RICHLAND AVE,KANSAS CITY,KS,66106-9724,,,7,5,4,5
664,TOPEKA,1410 NW GAGE BLVD,TOPEKA,KS,66618-2835,(785) 231-3535,,7,4,4,5
665,TOPEKA,1410 NW GAGE BLVD,TOPEKA,KS,66618-2835,(785) 231-3535,,7,4,4,5
666,TOPEKA,1410 NW GAGE BLVD,TOPEKA,KS,66618-2835,(785) 231-3535,,7,4,4,5
667,FORT SCOTT,120 S NATIONAL AVE,FORT SCOTT,KS,66701-9998,(816) 504-3331,,7,4,4,5
668,TOPEKA,1410 NW GAGE BLVD,TOPEKA,KS,66618-2835,(785) 231-3535,,7,4,4,5
669,SALINA,211 E ASH ST,SALINA,KS,67401-9998,(785) 827-3695,,6,4,4,5
670,WICHITA GMF,7117 W HARRY ST,WICHITA,KS,67276-9998,(316) 946-4649,,6,4,4,5
671,WICHITA GMF,7117 W HARRY ST,WICHITA,KS,67276-9998,(316) 946-4649,,6,4,4,5
672,WICHITA GMF,7117 W HARRY ST,WICHITA,KS,67276-9998,(316) 946-4649,,6,4,4,5
673,INDEPENDENCE,116 E LAUREL ST,INDEPENDENCE,KS,67301-9998,,,6,4,4,5
674,SALINA,211 E ASH ST,SALINA,KS,67401-9998,(785) 827-3695,,6,4,4,5
675,HUTCHINSON,128 E 1ST AVE,HUTCHINSON,KS,67501-9998,(620) 662-1295,,6,4,4,5
676,HAYS,706 FORT ST,HAYS,KS,67601-9998,(785) 625-3112,,6,4,4,5
677,COLBY,535 N COURT AVE,COLBY,KS,67701-9998,(785) 462-7904,,6,3,5,6
678,DODGE CITY,700 CENTRAL AVE,DODGE CITY,KS,67801-9998,(620) 227-8619,,6,4,4,5
679,LIBERAL,25 E 5TH ST,LIBERAL,KS,67901-9998,(620) 624-4031,,6,4,4,5
680,OMAHA,1124 PACIFIC ST,OMAHA,NE,68108-9998,(402) 348-2602,,6,4,4,5
681,OMAHA,1124 PACIFIC ST,OMAHA,NE,68108-9998,(402) 348-2602,,6,4,4,5
683,LINCOLN,700 R ST,LINCOLN,NE,68501-9998,(402) 473-1602,,6,4,4,5
684,LINCOLN,700 R ST,LINCOLN,NE,68501-9998,(402) 473-1602,,6,4,4,5
685,LINCOLN,700 R ST,LINCOLN,NE,68501-9998,(402) 473-1602,,6,4,4,5
686,NORFOLK,1100 S PINE INDUSTRIAL RD,NORFOLK,NE,68701-9997,(402) 371-0734,,6,4,4,5
687,NORFOLK,1100 S PINE INDUSTRIAL RD,NORFOLK,NE,68701-9997,(402) 371-0734,,6,4,4,5
688,GRAND ISLAND,3835 W OLD POTASH HWY,GRAND ISLAND,NE,68803-9977,(308) 385-6526,,6,4,4,5
689,GRAND ISLAND,3835 W OLD POTASH HWY,GRAND ISLAND,NE,68803-9977,(308) 385-6526,,6,4,4,5
690,MC COOK,411 W 3RD ST,MC COOK,NE,69001-9998,(308) 345-6590,,6,3,5,6
691,NORTH PLATTE,1302 INDUSTRIAL AVE,NORTH PLATTE,NE,69101-9998,(308) 532-3144,,6,3,5,6
692,VALENTINE,239 N HALL ST,VALENTINE,NE,69201-9998,(402) 376-1540,,6,3,5,6
693,ALLIANCE,401 BOX BUTTE AVE,ALLIANCE,NE,69301-3343,(308) 762-3212,,6,3,5,6
700,NEW ORLEANS,701 LOYOLA AVE,NEW ORLEANS,LA,70113-9998,(504) 589-1027,,8,6,4,4
701,NEW ORLEANS,701 LOYOLA AVE,NEW ORLEANS,LA,70113-9998,(504) 589-1027,,8,6,4,4
703,HOUMA,,,,-,,,8,6,4,4
704,MANDEVILLE,1 SAINT ANN DR,MANDEVILLE,LA,70471-9998,(504) 589-1027,,8,6,4,4
705,LAFAYETTE,1105 MOSS ST,LAFAYETTE,LA,70501-3601,(504) 589-1027,,7,5,3,4
706,LAKE CHARLES,921 MOSS ST,LAKE CHARLES,LA,70601-9998,,,7,5,4,4
707,BATON ROUGE,8101 BLUEBONNET BLVD,BATON ROUGE,LA,70810-2830,(504) 589-1027,,7,5,4,4
708,BATON ROUGE,8101 BLUEBONNET BLVD,BATON ROUGE,LA,70810-2830,(504) 589-1027,,7,5,4,4
710,SHREVEPORT,2400 TEXAS AVE,SHREVEPORT,LA,71102-9998,(318) 677-2369,,7,5,3,4
711,SHREVEPORT,2400 TEXAS AVE,SHREVEPORT,LA,71102-9998,(318) 677-2369,,7,5,3,4
712,MONROE,501 STERLINGTON RD,MONROE,LA,71203-9998,(504) 589-1027,,7,5,3,4
713,ALEXANDRIA,,,LA,-,,,7,5,3,4
714,ALEXANDRIA,,,LA,-,,,7,5,3,4
716,PINE BLUFF,100 E 8TH AVE,PINE BLUFF,AR,71601-5004,(870) 536-3535,,7,5,3,4
717,CAMDEN ANNEX,777 CALIFORNIA AVE SW,CAMDEN,AR,71701-4605,(870) 837-2095,,7,5,3,4
718,TEXARKANA,2211 N ROBISON RD,TEXARKANA,TX,75501-9998,,,7,5,3,4
719,HOT SPRINGS NATIONAL PARK,335 SECTION LINE RD,HOT SPRINGS NATIONAL PARK,AR,71913-9998,,,7,5,3,4
720,LITTLE ROCK P&DC,4700 E MCCAIN BLVD,LITTLE ROCK,AR,72231-9998,(501) 375-5155,,7,5,3,4
721,LITTLE ROCK P&DC,4700 E MCCAIN BLVD,LITTLE ROCK,AR,72231-9998,(501) 375-5155,,7,5,3,4
722,LITTLE ROCK P&DC,4700 E MCCAIN BLVD,LITTLE ROCK,AR,72231-9998,(501) 375-5155,,7,5,3,4
723,MEMPHIS P&DC,638 S 2ND ST,MEMPHIS,TN,38101-7900,(901) 521-2182,,7,5,4,4
724,NORTHEAST ARKANSAS P&DC,3405 MOORE RD,JONESBORO,AR,72401-9996,(870) 931-5763,,7,5,4,4
725,BATESVILLE,490 E COLLEGE ST,BATESVILLE,AR,72501-5626,,,7,5,4,4
726,HARRISON,215 W INDUSTRIAL PARK RD,HARRISON,AR,72601-9998,(870) 741-3473,,7,5,3,4
727,NORTHWEST ARKANSAS,2300 S CITY LAKE RD,FAYETTEVILLE,AR,72701-9997,(479) 571-1006,,7,5,3,4
728,RUSSELLVILLE,203 S BOSTON AVE,RUSSELLVILLE,AR,72801-9998,(479) 968-4112,,7,5,3,4
729,FORT SMITH,3318 S 74TH ST,FORT SMITH,AR,72903-9998,(479) 484-6401,,7,5,3,4
730,OKLAHOMA CITY,320 SW 5TH ST,OKLAHOMA CITY,OK,73125-9100,,,6,4,3,5
731,OKLAHOMA CITY,320 SW 5TH ST,OKLAHOMA CITY,OK,73125-9100,,,6,4,3,5
734,ARDMORE,208 1ST AVE SW,ARDMORE,OK,73401-9998,(580) 223-1583,,6,4,3,5
735,LAWTON,501 SW 5TH ST,LAWTON,OK,73501-9998,(580) 353-1500,,6,4,3,5
736,CLINTON,212 S 11TH ST,CLINTON,OK,73601-9998,(580) 323-0712,,6,4,3,5
737,ENID,115 W BROADWAY AVE FL 1,ENID,OK,73701-9998,(405) 237-4331,,6,4,3,5
738,WOODWARD,2020 WILLIAMS AVE,WOODWARD,OK,73801-9998,(580) 256-7138,,6,4,3,5
739,LIBERAL,25 E 5TH ST,LIBERAL,KS,67901-9998,(620) 624-4031,,6,4,4,5
740,TULSA P & DC,2132 S 91ST EAST AVE,TULSA,OK,74141-9997,(918) 270-7431,,6,4,3,5
741,TULSA P & DC,2132 S 91ST EAST AVE,TULSA,OK,74141-9997,(918) 270-7431,,6,4,3,5
743,TULSA P & DC,2132 S 91ST EAST AVE,TULSA,OK,74141-9997,(918) 270-7431,,6,4,3,5
744,MUSKOGEE,525 W OKMULGEE ST,MUSKOGEE,OK,74401-9998,(918) 686-5246,,6,4,3,5
745,MCALESTER,123 EXPRESS LN,MCALESTER,OK,74501-9997,(918) 423-4048,,6,4,3,5
746,PONCA CITY,402 E GRAND AVE,PONCA CITY,OK,74601-9998,(580) 762-2870,,6,4,3,5
747,DURANT,1223 W MAIN ST,DURANT,OK,74701-9998,(580) 924-6464,,6,4,3,5
748,SHAWNEE,5630 N HARRISON ST,SHAWNEE,OK,74804-9122,(405) 275-2607,,6,4,3,5
749,POTEAU,115 N WITTE ST,POTEAU,OK,74953-3923,(918) 647-3410,,6,4,3,5
750,NORTH TEXAS,951 W BETHEL RD,COPPELL,TX,75099-8888,(972) 393-6325,,7,5,1,5
751,DALLAS,401 DFW TPKE,DALLAS,TX,75260-9998,(214) 760-4941,,7,5,1,5
752,DALLAS,401 DFW TPKE,DALLAS,TX,75260-9998,(214) 760-4941,,7,5,1,5
753,DALLAS,401 DFW TPKE,DALLAS,TX,75260-9998,(214) 760-4941,,7,5,1,5
754,GREENVILLE,,,TX,-,,,7,5,1,5
755,TEXARKANA,2211 N ROBISON RD,TEXARKANA,TX,75501-9998,,,7,5,1,5
756,EAST TEXAS,12621 FM 3311,TYLER,TX,75708-9901,(903) 595-8680,,7,5,1,5
757,EAST TEXAS,12621 FM 3311,TYLER,TX,75708-9901,(903) 595-8680,,7,5,1,5
758,PALESTINE,1213 N LINK ST,PALESTINE,TX,75803-9998,(903) 723-1084,,7,5,1,5
759,LUFKIN,800 S JOHN REDDITT DR,LUFKIN,TX,75904-9998,(936) 634-7749,,7,5,3,5
760,FORT WORTH,4600 MARK IV PKWY,FORT WORTH,TX,76161-9997,(817) 317-3850,,6,5,1,5
761,FORT WORTH,4600 MARK IV PKWY,FORT WORTH,TX,76161-9997,(817) 317-3850,,6,5,1,5
762,FORT WORTH,4600 MARK IV PKWY,FORT WORTH,TX,76161-9997,(817) 317-3850,,6,5,1,5
763,WICHITA FALLS,1343 HATTON RD,WICHITA FALLS,TX,76302-9995,,,6,5,1,5
764,FORT WORTH,4600 MARK IV PKWY,FORT WORTH,TX,76161-9997,(817) 317-3850,,6,5,1,5
765,WACO,430 W STATE HIGHWAY 6,WACO,TX,76702-0009,(254) 399-2201,,6,5,1,5
766,WACO,430 W STATE HIGHWAY 6,WACO,TX,76702-0009,(254) 399-2201,,6,5,1,5
767,WACO,430 W STATE HIGHWAY 6,WACO,TX,76702-0009,(254) 399-2201,,6,5,1,5
768,ABILENE,1020 E OVERLAND TRL,ABILENE,TX,79601-9997,(325) 672-1020,,6,4,3,5
769,MIDLAND,10000 SLOAN FIELD BLVD,MIDLAND,TX,79711-9996,(432) 560-5063,,6,4,4,6
770,HOUSTON,401 FRANKLIN ST,HOUSTON,TX,77201-9998,(713) 226-3511,,6,5,3,5
772,HOUSTON,401 FRANKLIN ST,HOUSTON,TX,77201-9998,(713) 226-3511,,6,5,3,5
773,NORTH HOUSTON,4600 ALDINE BENDER RD,NORTH HOUSTON,TX,77315-9900,(281) 985-4267,,7,5,3,5
774,NORTH HOUSTON,4600 ALDINE BENDER RD,NORTH HOUSTON,TX,77315-9900,(281) 985-4267,,7,5,3,5
775,NORTH HOUSTON,4600 ALDINE BENDER RD,NORTH HOUSTON,TX,77315-9900,(281) 985-4267,,7,5,3,5
776,BEAUMONT,5815 WALDEN RD,BEAUMONT,TX,77707-9998,(409) 981-8730,,7,5,3,5
777,BEAUMONT,5815 WALDEN RD,BEAUMONT,TX,77707-9998,(409) 981-8730,,7,5,3,5
778,BRYAN,2121 E WM J BRYAN PKWY,BRYAN,TX,77801-9998,(979) 774-2314,,7,5,3,5
779,VICTORIA,312 S MAIN ST,VICTORIA,TX,77901-9998,,,7,5,3,5
780,SAN ANTONIO,10410 PERRIN BEITEL RD,SAN ANTONIO,TX,78284-9991,(210) 368-8387,,7,5,3,5
781,SAN ANTONIO,10410 PERRIN BEITEL RD,SAN ANTONIO,TX,78284-9991,(210) 368-8387,,7,5,3,5
782,SAN ANTONIO,10410 PERRIN BEITEL RD,SAN ANTONIO,TX,78284-9991,(210) 368-8387,,7,5,3,5
783,CORPUS CHRISTI,809 NUECES BAY BLVD,CORPUS CHRISTI,TX,78469-9998,(361) 886-2242,,7,5,4,5
784,CORPUS CHRISTI,809 NUECES BAY BLVD,CORPUS CHRISTI,TX,78469-9998,(361) 886-2242,,7,5,4,5
785,MCALLEN,620 E PECAN BLVD,MCALLEN,TX,78501-9998,(956) 971-1741,,7,5,4,5
786,AUSTIN,8225 CROSS PARK DR,AUSTIN,TX,78710-9998,(512) 342-1225,,7,5,3,5
787,AUSTIN,8225 CROSS PARK DR,AUSTIN,TX,78710-9998,(512) 342-1225,,7,5,3,5
788,SAN ANTONIO,10410 PERRIN BEITEL RD,SAN ANTONIO,TX,78284-9991,(210) 368-8387,,7,5,3,5
789,AUSTIN,8225 CROSS PARK DR,AUSTIN,TX,78710-9998,(512) 342-1225,,7,5,3,5
790,AMARILLO,2301 ROSS ST,AMARILLO,TX,79120-9998,(806) 468-2101,,6,4,4,5
791,AMARILLO,2301 ROSS ST,AMARILLO,TX,79120-9998,(806) 468-2101,,6,4,4,5
792,CHILDRESS,507 AVENUE F NW,CHILDRESS,TX,79201-9998,(940) 937-3741,,6,4,4,5
793,LUBBOCK,1515 CRICKETS AVE,LUBBOCK,TX,79402-9998,(806) 762-7841,,6,4,3,5
794,LUBBOCK,1515 CRICKETS AVE,LUBBOCK,TX,79402-9998,(806) 762-7841,,6,4,3,5
795,ABILENE,1020 E OVERLAND TRL,ABILENE,TX,79601-9997,(325) 672-1020,,6,4,3,5
796,ABILENE,1020 E OVERLAND TRL,ABILENE,TX,79601-9997,(325) 672-1020,,6,4,3,5
797,MIDLAND,10000 SLOAN FIELD BLVD,MIDLAND,TX,79711-9996,(432) 560-5063,,6,4,4,6
798,EL PASO,8401 BOEING DR,EL PASO,TX,79910-9998,(915) 780-7595,,5,4,4,6
799,EL PASO,8401 BOEING DR,EL PASO,TX,79910-9998,(915) 780-7595,,5,4,4,6
800,DENVER PDC,7540 E 53RD PL,DENVER,CO,80266-0001,(303) 297-6510,,5,1,5,6
801,DENVER PDC,7540 E 53RD PL,DENVER,CO,80266-0001,(303) 297-6510,,5,1,5,6
802,DENVER PDC,7540 E 53RD PL,DENVER,CO,80266-0001,(303) 297-6510,,5,1,5,6
803,DENVER PDC,7540 E 53RD PL,DENVER,CO,80266-0001,(303) 297-6510,,5,1,5,6
804,DENVER PDC,7540 E 53RD PL,DENVER,CO,80266-0001,(303) 297-6510,,5,1,5,6
805,TWIN PEAKS,1845 SKYWAY DR,LONGMONT,CO,80504-9997,,,5,1,5,6
806,DENVER PDC,7540 E 53RD PL,DENVER,CO,80266-0001,(303) 297-6510,,5,1,5,6
807,DENVER PDC,7540 E 53RD PL,DENVER,CO,80266-0001,(303) 297-6510,,5,1,5,6
808,COLORADO SPRINGS,3655 E FOUNTAIN BLVD,COLORADO SPRINGS,CO,80910-3733,(719) 570-5336,,5,1,5,6
809,COLORADO SPRINGS,3655 E FOUNTAIN BLVD,COLORADO SPRINGS,CO,80910-3733,(719) 570-5336,,5,1,5,6
810,COLORADO SPRINGS,3655 E FOUNTAIN BLVD,COLORADO SPRINGS,CO,80910-3733,(719) 570-5336,,5,1,5,6
811,ALAMOSA,505 3RD ST,ALAMOSA,CO,81101-9998,(719) 589-4909,,5,1,5,6
812,SALIDA,310 D ST,SALIDA,CO,81201-2843,(719) 539-2548,,5,1,5,6
813,DURANGO,,,CO,-,,,5,2,5,6
814,GRAND JUNCTION,602 BURKEY ST,GRAND JUNCTION,CO,81505-1016,(970) 244-3440,,5,3,5,6
815,GRAND JUNCTION,602 BURKEY ST,GRAND JUNCTION,CO,81505-1016,(970) 244-3440,,5,3,5,6
816,GLENWOOD SPRINGS,195 CENTER DR,GLENWOOD SPRINGS,CO,81601-2595,,,5,3,5,6
820,CHEYENNE,4800 CONVERSE AVE,CHEYENNE,WY,82009-9997,(307) 772-6504,,5,2,5,6
821,BILLINGS,841 S 26TH ST,BILLINGS,MT,59101-4561,(406) 657-5745,,5,4,6,7
822,WHEATLAND,852 WALNUT ST,WHEATLAND,WY,82201-9998,(307) 322-3287,,5,2,5,6
823,RAWLINS,106 5TH ST,RAWLINS,WY,82301-9998,(307) 324-3521,,5,2,5,6
824,WORLAND,119 N 7TH ST,WORLAND,WY,82401-9998,(307) 347-3321,,5,3,5,6
825,RIVERTON,501 E MAIN ST,RIVERTON,WY,82501-9998,(307) 856-3725,,5,3,5,6
826,CASPER,411 N FOREST DR,CASPER,WY,82609-9998,(307) 266-4034,,5,3,5,6
827,GILLETTE,311 S KENDRICK AVE,GILLETTE,WY,82716-9998,(307) 682-3727,,5,3,5,6
828,SHERIDAN,101 E LOUCKS ST,SHERIDAN,WY,82801-9998,(307) 672-3430,,5,3,5,6
829,ROCK SPRINGS,,,WY,-,,,5,3,5,6
830,ROCK SPRINGS,,,WY,-,,,5,3,5,6
831,ROCK SPRINGS,,,WY,-,,,5,3,5,6
832,POCATELLO MP ANNEX,1750 FLANDRO DR,POCATELLO,ID,83202-1970,(208) 433-4080,,4,4,5,7
833,TWIN FALLS MP ANNEX,1376 FILLMORE ST,TWIN FALLS,ID,83301-9998,(208) 733-0702,,4,5,6,8
834,POCATELLO MP ANNEX,1750 FLANDRO DR,POCATELLO,ID,83202-1970,(208) 433-4080,,4,4,5,7
835,LEWISTON PDF,1613 IDAHO ST,LEWISTON,ID,83501-9998,(208) 743-3476,,5,5,7,8
836,BOISE PDC,2201 S COLE RD,BOISE,ID,83708-9997,(208) 433-4000,,4,5,6,8
837,BOISE PDC,2201 S COLE RD,BOISE,ID,83708-9997,(208) 433-4000,,4,5,6,8
838,SPOKANE PDC,2928 S SPOTTED RD,SPOKANE,WA,99224-9997,(509) 459-0205,,5,5,7,8
840,SALT LAKE CITY,1760 W 2100 S,SALT LAKE CITY,UT,84199-9997,(801) 974-2558,,4,4,5,7
841,SALT LAKE CITY,1760 W 2100 S,SALT LAKE CITY,UT,84199-9997,(801) 974-2558,,4,4,5,7
842,SALT LAKE CITY,1760 W 2100 S,SALT LAKE CITY,UT,84199-9997,(801) 974-2558,,4,4,5,7
843,SALT LAKE CITY,1760 W 2100 S,SALT LAKE CITY,UT,84199-9997,(801) 974-2558,,4,4,5,7
844,SALT LAKE CITY,1760 W 2100 S,SALT LAKE CITY,UT,84199-9997,(801) 974-2558,,4,4,5,7
845,PROVO,936 S 250 E,PROVO,UT,84606-9998,(801) 374-2052,,4,4,5,7
846,PROVO,936 S 250 E,PROVO,UT,84606-9998,(801) 374-2052,,4,4,5,7
847,PROVO,936 S 250 E,PROVO,UT,84606-9998,(801) 374-2052,,4,4,5,7
850,PHOENIX SCF,4949 E VAN BUREN ST,PHOENIX,AZ,85026-9800,(602) 225-3214,,5,4,5,7
852,PHOENIX SCF,4949 E VAN BUREN ST,PHOENIX,AZ,85026-9800,(602) 225-3214,,5,4,5,7
853,PHOENIX SCF,4949 E VAN BUREN ST,PHOENIX,AZ,85026-9800,(602) 225-3214,,5,4,5,7
855,GLOBE SCF,1770 HIGHWAY 60-77,GLOBE,AZ,85501-1494,(928) 425-6950,,5,4,5,7
856,TUCSON,1501 S CHERRYBELL STRA,TUCSON,AZ,85726-9901,(520) 388-5004,,5,4,5,7
857,TUCSON,1501 S CHERRYBELL STRA,TUCSON,AZ,85726-9901,(520) 388-5004,,5,4,5,7
859,SHOW LOW,191 W DEUCE OF CLUBS,SHOW LOW,AZ,85901-9998,(928) 537-1131,,5,4,5,7
860,FLAGSTAFF,2400 N POSTAL BLVD,FLAGSTAFF,AZ,86004-9998,(928) 714-0524,,5,4,5,7
863,PRESCOTT SCF,442 MILLER VALLEY RD,PRESCOTT,AZ,86301-9998,(928) 445-8814,,5,4,5,7
864,KINGMAN,1901 JOHNSON AVE,KINGMAN,AZ,86401-9998,(928) 753-8944,,4,5,5,7
865,GALLUP,500 S 2ND ST,GALLUP,NM,87301-9998,(505) 726-2686,,5,4,4,6
870,ALBUQUERQUE,1135 BROADWAY BLVD NE,ALBUQUERQUE,NM,87101-0001,(505) 346-8252,,5,4,4,6
871,ALBUQUERQUE,1135 BROADWAY BLVD NE,ALBUQUERQUE,NM,87101-0001,(505) 346-8252,,5,4,4,6
873,GALLUP,500 S 2ND ST,GALLUP,NM,87301-9998,(505) 726-2686,,5,4,4,6
874,FARMINGTON,2301 E 20TH ST,FARMINGTON,NM,87401-9998,(505) 325-5047,,5,4,4,6
875,ALBUQUERQUE,1135 BROADWAY BLVD NE,ALBUQUERQUE,NM,87101-0001,(505) 346-8252,,5,4,4,6
877,LAS VEGAS,1001 DOUGLAS AVE,LAS VEGAS,NM,87701-9998,(505) 425-9387,,5,4,4,6
878,SOCORRO,124 PLAZA ST,SOCORRO,NM,87801-9998,(575) 835-0542,,5,4,4,6
879,TRUTH OR CONSEQUENCES,1507 N DATE ST,TRUTH OR CONSEQUENCES,NM,87901-9998,,,5,4,4,6
880,LAS CRUCES,201 E LAS CRUCES AVE,LAS CRUCES,NM,88001-9998,(575) 524-2903,,5,4,4,6
881,NORTHWEST STATION,1224 W 21ST ST,CLOVIS,NM,88101-4199,(575) 763-5556,,6,4,3,5
882,ROSWELL ANNEX,497 W BRASHER RD,ROSWELL,NM,88203-9998,(575) 623-8699,,6,4,3,5
883,ALAMOGORDO,930 12TH ST,ALAMOGORDO,NM,88310-9998,(575) 437-9390,,5,4,4,6
884,TUCUMCARI,220 S 1ST ST,TUCUMCARI,NM,88401-9998,(505) 848-3903,,5,4,4,6
885,EL PASO,8401 BOEING DR,EL PASO,TX,79910-9998,(915) 780-7595,,5,4,4,6
889,LAS VEGAS,1001 E SUNSET RD RM 2001,LAS VEGAS,NV,89199-9998,(702) 361-9453,,4,5,6,7
890,LAS VEGAS,1001 E SUNSET RD RM 2001,LAS VEGAS,NV,89199-9998,(702) 361-9453,,4,5,6,7
891,LAS VEGAS,1001 E SUNSET RD RM 2001,LAS VEGAS,NV,89199-9998,(702) 361-9453,,4,5,6,7
893,ELY,2600 BRISTLECONE AVE,ELY,NV,89301-3140,,,4,5,6,7
894,RENO,2000 VASSAR ST,RENO,NV,89510-9991,(775) 788-0676,,2,5,6,8
895,RENO,2000 VASSAR ST,RENO,NV,89510-9991,(775) 788-0676,,2,5,6,8
897,RENO,2000 VASSAR ST,RENO,NV,89510-9991,(775) 788-0676,,2,5,6,8
898,ELKO,500 ASPEN WAY,ELKO,NV,89801-9997,(775) 777-9803,,4,4,5,7
900,LOS ANGELES,7001 S CENTRAL AVE,LOS ANGELES,CA,90052-9998,(213) 586-2719,,4,5,6,8
901,LOS ANGELES,7001 S CENTRAL AVE,LOS ANGELES,CA,90052-9998,(213) 586-2719,,4,5,6,8
902,LOS ANGELES,7001 S CENTRAL AVE,LOS ANGELES,CA,90052-9998,(213) 586-2719,,4,5,6,8
903,LOS ANGELES,7001 S CENTRAL AVE,LOS ANGELES,CA,90052-9998,(213) 586-2719,,4,5,6,8
904,LOS ANGELES,7001 S CENTRAL AVE,LOS ANGELES,CA,90052-9998,(213) 586-2719,,4,5,6,8
905,LONG BEACH,2300 REDONDO AVE,LONG BEACH,CA,90809-9998,(562) 494-2300,,4,5,6,8
906,LONG BEACH,2300 REDONDO AVE,LONG BEACH,CA,90809-9998,(562) 494-2300,,4,5,6,8
907,LONG BEACH,2300 REDONDO AVE,LONG BEACH,CA,90809-9998,(562) 494-2300,,4,5,6,8
908,LONG BEACH,2300 REDONDO AVE,LONG BEACH,CA,90809-9998,(562) 494-2300,,4,5,6,8
910,PASADENA,600 LINCOLN AVE,PASADENA,CA,91109-9997,(626) 304-7112,,4,5,6,8
911,PASADENA,600 LINCOLN AVE,PASADENA,CA,91109-9997,(626) 304-7112,,4,5,6,8
912,PASADENA,600 LINCOLN AVE,PASADENA,CA,91109-9997,(626) 304-7112,,4,5,6,8
913,VAN NUYS,28201 FRANKLIN PKWY,SANTA CLARITA,CA,91383-9997,(661) 775-7807,,4,5,6,8
914,VAN NUYS,28201 FRANKLIN PKWY,SANTA CLARITA,CA,91383-9997,(661) 775-7807,,4,5,6,8
915,VAN NUYS,28201 FRANKLIN PKWY,SANTA CLARITA,CA,91383-9997,(661) 775-7807,,4,5,6,8
916,VAN NUYS,28201 FRANKLIN PKWY,SANTA CLARITA,CA,91383-9997,(661) 775-7807,,4,5,6,8
917,INDUSTRY,15421 E GALE AVE,CITY OF INDUSTRY,CA,91715-9998,(626) 855-6522,,4,5,6,8
918,INDUSTRY,15421 E GALE AVE,CITY OF INDUSTRY,CA,91715-9998,(626) 855-6522,,4,5,6,8
919,SAN DIEGO,11251 RANCHO CARMEL DR,SAN DIEGO,CA,92199-9003,(858) 674-0109,,4,5,6,8
920,SAN DIEGO,11251 RANCHO CARMEL DR,SAN DIEGO,CA,92199-9003,(858) 674-0109,,4,5,6,8
921,SAN DIEGO,11251 RANCHO CARMEL DR,SAN DIEGO,CA,92199-9003,(858) 674-0109,,4,5,6,8
922,SAN BERNARDINO,1900 W REDLANDS BLVD,SAN BERNARDINO,CA,92403-9997,(909) 335-4531,,4,5,6,8
923,SAN BERNARDINO,1900 W REDLANDS BLVD,SAN BERNARDINO,CA,92403-9997,(909) 335-4531,,4,5,6,8
924,SAN BERNARDINO,1900 W REDLANDS BLVD,SAN BERNARDINO,CA,92403-9997,(909) 335-4531,,4,5,6,8
925,SAN BERNARDINO,1900 W REDLANDS BLVD,SAN BERNARDINO,CA,92403-9997,(909) 335-4531,,4,5,6,8
926,SANTA ANA,3101 W SUNFLOWER AVE,SANTA ANA,CA,92799-0101,(714) 662-6474,,4,5,6,8
927,SANTA ANA,3101 W SUNFLOWER AVE,SANTA ANA,CA,92799-0101,(714) 662-6474,,4,5,6,8
928,ANAHEIM,5335 E LA PALMA AVE,ANAHEIM,CA,92899-9998,(714) 701-2663,,4,5,6,8
930,OXNARD,2901 CAMINO DEL SOL,OXNARD,CA,93030-8989,,,4,5,6,8
931,SANTA BARBARA,400 STORKE RD,GOLETA,CA,93199-9997,(805) 961-0710,,4,5,6,8
932,BAKERSFIELD,3400 PEGASUS DR,BAKERSFIELD,CA,93380-9998,(661) 392-6102,,3,5,6,8
933,BAKERSFIELD,3400 PEGASUS DR,BAKERSFIELD,CA,93380-9998,(661) 392-6102,,3,5,6,8
934,SANTA BARBARA,400 STORKE RD,GOLETA,CA,93199-9997,(805) 961-0710,,4,5,6,8
935,MOJAVE,2053 BELSHAW ST,MOJAVE,CA,93501-9998,,,2,5,6,8
936,FRESNO,1900 E ST,FRESNO,CA,93706-8000,(559) 497-7615,,2,5,6,8
937,FRESNO,1900 E ST,FRESNO,CA,93706-8000,(559) 497-7615,,2,5,6,8
939,SALINAS,1011 POST DR,SALINAS,CA,93907-8000,(831) 770-7144,,2,5,7,8
940,SAN FRANCISCO,1300 EVANS AVE,SAN FRANCISCO,CA,94188-,,,2,5,7,8
941,SAN FRANCISCO,1300 EVANS AVE,SAN FRANCISCO,CA,94188-,,,2,5,7,8
942,SACRAMENTO,3775 INDUSTRIAL BLVD,WEST SACRAMENTO,CA,95799-0100,(916) 373-8128,,1,5,7,8
943,SAN FRANCISCO,1300 EVANS AVE,SAN FRANCISCO,CA,94188-,,,2,5,7,8
944,SAN FRANCISCO,1300 EVANS AVE,SAN FRANCISCO,CA,94188-,,,2,5,7,8
945,OAKLAND,1675 7TH ST,OAKLAND,CA,94615-0001,(510) 874-8252,,2,5,7,8
946,OAKLAND,1675 7TH ST,OAKLAND,CA,94615-0001,(510) 874-8252,,2,5,7,8
947,OAKLAND,1675 7TH ST,OAKLAND,CA,94615-0001,(510) 874-8252,,2,5,7,8
948,OAKLAND,1675 7TH ST,OAKLAND,CA,94615-0001,(510) 874-8252,,2,5,7,8
949,NORTH BAY,1150 N MCDOWELL BLVD,PETALUMA,CA,94999-9998,(707) 778-5230,,2,5,7,8
950,SAN JOSE,1750 LUNDY AVE,SAN JOSE,CA,95101-9998,(408) 437-6700,,2,5,7,8
951,SAN JOSE,1750 LUNDY AVE,SAN JOSE,CA,95101-9998,(408) 437-6700,,2,5,7,8
952,STOCKTON,3131 ARCH AIRPORT RD,STOCKTON,CA,95213-9998,(209) 983-6351,,1,5,7,8
953,STOCKTON,3131 ARCH AIRPORT RD,STOCKTON,CA,95213-9998,(209) 983-6351,,1,5,7,8
954,NORTH BAY,1150 N MCDOWELL BLVD,PETALUMA,CA,94999-9998,(707) 778-5230,,2,5,7,8
955,EUREKA,337 W CLARK ST,EUREKA,CA,95501-9903,(707) 778-5254,,3,6,7,8
956,SACRAMENTO,3775 INDUSTRIAL BLVD,WEST SACRAMENTO,CA,95799-0100,(916) 373-8128,,1,5,7,8
957,SACRAMENTO,3775 INDUSTRIAL BLVD,WEST SACRAMENTO,CA,95799-0100,(916) 373-8128,,1,5,7,8
958,SACRAMENTO,3775 INDUSTRIAL BLVD,WEST SACRAMENTO,CA,95799-0100,(916) 373-8128,,1,5,7,8
959,MARYSVILLE,5050 ARBOGA RD,OLIVEHURST,CA,95961-9997,,,2,5,7,8
960,REDDING,2323 CHURN CREEK RD,REDDING,CA,96049-9998,,,2,5,7,8
961,RENO,2000 VASSAR ST,RENO,NV,89510-9991,(775) 788-0676,,2,5,6,8
962,SAN FRANCISCO,1300 EVANS AVE,SAN FRANCISCO,CA,94188-,,,2,5,7,8
963,SAN FRANCISCO,1300 EVANS AVE,SAN FRANCISCO,CA,94188-,,,2,5,7,8
965,SAN FRANCISCO,1300 EVANS AVE,SAN FRANCISCO,CA,94188-,,,2,5,7,8
966,SAN FRANCISCO,1300 EVANS AVE,SAN FRANCISCO,CA,94188-,,,2,5,7,8
967,HONOLULU,3600 AOLELE ST RM 208E,HONOLULU,HI,96820-9500,(808) 423-3840,,8,8,8,8
968,HONOLULU,3600 AOLELE ST RM 208E,HONOLULU,HI,96820-9500,(808) 423-3840,,8,8,8,8
969,BARRIGADA,489 ARMY DR,BARRIGADA,GU,96913-9998,(671) 734-3921,,9,9,9,9
970,PORTLAND,715 NW HOYT ST,PORTLAND,OR,97208-8098,(503) 294-2242,,4,5,7,8
971,PORTLAND,715 NW HOYT ST,PORTLAND,OR,97208-8098,(503) 294-2242,,4,5,7,8
972,PORTLAND,715 NW HOYT ST,PORTLAND,OR,97208-8098,(503) 294-2242,,4,5,7,8
973,SALEM,1050 25TH ST SE,SALEM,OR,97301-5048,(503) 370-4710,,4,5,7,8
974,EUGENE P&DF,3148 GATEWAY ST,SPRINGFIELD,OR,97477-1186,(541) 988-5100,,4,5,7,8
975,MEDFORD,2195 SAGE RD,MEDFORD,OR,97501-1357,(541) 776-1348,,3,5,7,8
976,KLAMATH FALLS,317 S 7TH ST,KLAMATH FALLS,OR,97601-9998,(541) 884-9846,,3,5,7,8
977,BEND,2300 NE 4TH ST,BEND,OR,97701-3615,(541) 388-2427,,4,5,7,8
978,PENDLETON,104 SW DORION AVE,PENDLETON,OR,97801-9998,(503) 294-2242,,4,5,7,8
979,BOISE PDC,2201 S COLE RD,BOISE,ID,83708-9997,(208) 433-4000,,4,5,6,8
980,SEATTLE,10700 27TH AVE S,TUKWILA,WA,98168-1899,,,5,6,7,8
981,SEATTLE,10700 27TH AVE S,TUKWILA,WA,98168-1899,,,5,6,7,8
982,EVERETT,8120 HARDESON RD,EVERETT,WA,98203-6230,(425) 355-8366,,5,6,7,8
983,TACOMA,4001 S PINE ST,TACOMA,WA,98413-9997,(253) 471-5852,,4,5,7,8
984,TACOMA,4001 S PINE ST,TACOMA,WA,98413-9997,(253) 471-5852,,4,5,7,8
985,OLYMPIA,717 76TH AVE SW,TUMWATER,WA,98501-9991,(360) 704-4815,,4,5,7,8
986,PORTLAND,715 NW HOYT ST,PORTLAND,OR,97208-8098,(503) 294-2242,,4,5,7,8
988,WENATCHEE,3075 OHME RD,WENATCHEE,WA,98801-9777,(509) 667-4634,,4,5,7,8
989,YAKIMA,205 W WASHINGTON AVE,YAKIMA,WA,98903-9998,(206) 521-0449,,4,5,7,8
990,SPOKANE PDC,2928 S SPOTTED RD,SPOKANE,WA,99224-9997,(509) 459-0205,,5,5,7,8
991,SPOKANE PDC,2928 S SPOTTED RD,SPOKANE,WA,99224-9997,(509) 459-0205,,5,5,7,8
992,SPOKANE PDC,2928 S SPOTTED RD,SPOKANE,WA,99224-9997,(509) 459-0205,,5,5,7,8
993,PASCO PDF,3500 W COURT ST,PASCO,WA,99301-3800,(509) 543-2113,,5,5,7,8
994,LEWISTON PDF,1613 IDAHO ST,LEWISTON,ID,83501-9998,(208) 743-3476,,5,5,7,8
995,ANCHORAGE PLANT,4141 POSTMARK DR,ANCHORAGE,AK,99530-9998,(907) 266-3261,,8,8,8,8
996,ANCHORAGE PLANT,4141 POSTMARK DR,ANCHORAGE,AK,99530-9998,(907) 266-3261,,8,8,8,8
997,FAIRBANKS PLANT,5400 MAIL TRAIL RD,FAIRBANKS,AK,99709-9998,(907) 455-5452,,8,8,8,8
998,JUNEAU PLANT,9491 VINTAGE BLVD,JUNEAU,AK,99801-7111,(907) 789-3295,,7,8,8,8
999,KETCHIKAN,3609 TONGASS AVE,KETCHIKAN,AK,99901-9998,(907) 225-9602,,6,7,8,8
